business_name,business_status,street_name_address,lot_address,latitude,longitude
GS25 고색거산,영업,"경기도 수원시 권선구 고현로5번길 25, 상가동 101호 (고색동, 거산아파트)",경기도 수원시 권선구 고색동 306-1번지 거산아파트 상가동 101호,37.247825,126.9860318
GS25금곡CM점,영업,"경기도 수원시 권선구 금곡로196번길 68, CM타워 1층 104호 (금곡동)",경기도 수원시 권선구 금곡동 1124-2번지 CM타워 104호,37.2732886,126.9550091
이마트24 수원율전점,영업,"경기도 수원시 장안구 서부로 2179, 1층 (율전동)",경기도 수원시 장안구 율전동 99-55번지,37.302785,126.9726424
지에스25 장안수성,영업,"경기도 수원시 장안구 영화로71번길 36, 10호 일부 (정자동)",경기도 수원시 장안구 정자동 69-46번지 10호 일부 ,37.292346,127.0047541
CU구운로점(씨유구운로점),영업,"경기도 수원시 권선구 구운로85번길 47-15, 1층 (구운동)",경기도 수원시 권선구 구운동 934-8번지,37.2801507,126.9706782
GS25광교데시앙,영업,"경기도 수원시 영통구 광교로 114 (이의동, 1351-1 광교데시앙루브 109호일부)",경기도 수원시 영통구 이의동 1351-1번지 광교데시앙루브 109호일부 ,37.2905452,127.0457472
씨유 수원탑동점,영업,"경기도 수원시 권선구 탑동로11번길 2 (탑동, 1층일부)",경기도 수원시 권선구 탑동 840-7번지 1층일부,37.2700422,126.9747525
세븐일레븐 수원영화점,영업,"경기도 수원시 장안구 정조로945번길 13, 1층 (영화동)",경기도 수원시 장안구 영화동 342-11번지 ,37.29134559,127.0111935
지에스25 수원파크,영업,"경기도 수원시 권선구 권선로699번길 17, 1층 (권선동)",경기도 수원시 권선구 권선동 1017-7번지 1층,37.2596541,127.0278624
미니스톱 세류베스트점,영업,"경기도 수원시 권선구 정조로443번길 41, 1층 (세류동)",경기도 수원시 권선구 세류동 579-16번지 1층 ,37.2500424,127.0110086
미니스톱 탑동중앙점,영업,"경기도 수원시 권선구 탑동로 1, 1층 (탑동)",경기도 수원시 권선구 탑동 835-8번지 1층,37.2690151,126.9751137
GS25 수원팰리스,영업,경기도 수원시 장안구 송정로90번길 16 (정자동),경기도 수원시 장안구 정자동 12-2번지,37.2947606,127.0073142
씨스페이스우만점,영업,경기도 수원시 팔달구 세지로 442 (우만동),경기도 수원시 팔달구 우만동 499-20번지 ,37.2873776,127.0326417
세븐일레븐 수원망포현대점,영업,"경기도 수원시 영통구 태장로 47, 망포마을현대2차아이파크 상가동 106호 (망포동)",경기도 수원시 영통구 망포동 683번지 망포마을현대2차아이파크 상가동 106호,37.2400495,127.0509704
CU광교경기대점,영업,"경기도 수원시 영통구 대학로 12, 1층 103호 (이의동)",경기도 수원시 영통구 이의동 1275-10번지 ,37.2976195,127.0421421
이마트24마이홈점,영업,"경기도 수원시 팔달구 효원로292번길 50, 101호 (인계동, 마이홈오피스텔  )",경기도 수원시 팔달구 인계동 1131-1번지 마이홈오피스텔 101호 ,37.2596801,127.031977
세븐일레븐 수원호매실프라자점,영업,"경기도 수원시 권선구 금곡로102번길 38, 호매실프라자 1층 101호 (금곡동)",경기도 수원시 권선구 금곡동 1083-1번지 호매실프라자 101호,37.27234515,126.9411532
미니스톱 고색산단2점,영업,"경기도 수원시 권선구 산업로 180, DH테크타워 1층 121,122호 (고색동)","경기도 수원시 권선구 고색동 1094번지 DH테크타워 121,2호",37.2423554,126.9841171
씨유만석공원점,영업,"경기도 수원시 장안구 파장로 1, 1층 (송죽동)",경기도 수원시 장안구 송죽동 258-3번지 (1층),37.3033745,126.9998365
미니스톱 영화센터점,영업,경기도 수원시 장안구 수성로382번길 14 (영화동),경기도 수원시 장안구 영화동 259-5번지 ,37.29334563,127.0140019
미니스톱수원삼익점,영업,경기도 수원시 장안구 경수대로 1082 (파장동),경기도 수원시 장안구 파장동 266-8번지,37.3094831,126.9943654
씨유영통리슈빌,영업,"경기도 수원시 영통구 중부대로 604 (영통동, 945-2 수원영통리슈빌스카이오피스텔 132호일부)",경기도 수원시 영통구 영통동 945-2번지 수원영통리슈빌스카이오피스텔 132호일부,37.2672354,127.0813032
씨유 수원호매실소망점,영업,"경기도 수원시 권선구 노림로15번길 5-9, 1층 (호매실동)",경기도 수원시 권선구 호매실동 404-5번지 ,37.26684598,126.9542579
GS25 수원에비뉴,영업,"경기도 수원시 권선구 동수원로177번길 40, 115호 (권선동, 아이파크시티8단지)",경기도 수원시 권선구 권선동 1364번지 아이파크시티8단지 115호,37.2466607,127.0300559
씨유수원곡반정썬스타,영업,"경기도 수원시 권선구 곡선로49번길 32-20, 1층 (곡반정동)",경기도 수원시 권선구 곡반정동 552-8번지 1층,37.2397134,127.0315861
GS세류파크점,영업,경기도 수원시 권선구 정조로384번길 23 (세류동),경기도 수원시 권선구 세류동 1159-7번지,37.2441042,127.0158091
미니스톱 권선중앙점,영업,"경기도 수원시 권선구 장다리로 109, 1층 (권선동)",경기도 수원시 권선구 권선동 972-10번지 1층 ,37.25988483,127.0217802
GS25율전래미안,영업,"경기도 수원시 장안구 화산로187번길 19, 106호 (천천동)",경기도 수원시 장안구 천천동 544번지 106호,37.2974247,126.9762311
지에스25 신동삼성,영업,경기도 수원시 영통구 신원로136번길 12 (신동),경기도 수원시 영통구 신동 334-18번지,37.2486884,127.0555858
세븐일레븐 일호골든타워점,영업,"경기도 수원시 장안구 경수대로 940, 일호골든타워 109호 (조원동)",경기도 수원시 장안구 조원동 894번지 일호골든타워 109호,37.303068,127.0080365
GS25율전제일점,영업,"경기도 수원시 장안구 덕영대로439번길 13-4, 1층 (율전동)",경기도 수원시 장안구 율전동 228번지,37.3014871,126.9710864
GS25곡반정원룸점,영업,"경기도 수원시 권선구 동수원로146번길 308-1, 1층 (곡반정동)",경기도 수원시 권선구 곡반정동 534-12번지 1층 ,37.24242458,127.0307412
세븐일레븐 수원칠보9단지점,영업,"경기도 수원시 권선구 금곡로140번길 73, 상가1동 103,104호 (호매실동, 칠보마을9단지)","경기도 수원시 권선구 호매실동 1352번지 칠보마을9단지 상가1동 103,104호 ",37.27034742,126.9462621
지에스 25 수원힐스,영업,"경기도 수원시 영통구 덕영대로 1462-14, 601동 105호 (망포동, 힐스테이트 영통 아파트)",경기도 수원시 영통구 망포동 728번지 힐스테이트 영통 아파트 601동 105호,37.2439871,127.0506686
세븐일레븐 수원신원로점,영업,"경기도 수원시 영통구 신원로136번길 30, 지1층 (신동)",경기도 수원시 영통구 신동 334-41번지 지하1층,37.2479949,127.0548865
씨유곡반정동공원점,영업,"경기도 수원시 권선구 동수원로146번길 253, 1층 (곡반정동)",경기도 수원시 권선구 곡반정동 544-1번지 1층,37.2407407,127.0310005
씨유연무중앙점,영업,"경기도 수원시 장안구 연무로20번길 3, 1층 (연무동)",경기도 수원시 장안구 연무동 229-24번지,37.2941001,127.0288098
지에스25수원황골점,영업,"경기도 수원시 영통구 봉영로 1761, 1층 (영통동)",경기도 수원시 영통구 영통동 945-7번지 GS편의점내,37.2662081,127.0815839
세븐일레븐수원지동타운점,영업,경기도 수원시 팔달구 팔달문로115번길 14 (지동),경기도 수원시 팔달구 지동 478-1번지 ,37.2822877,127.0285803
GS25고색밸리,영업,"경기도 수원시 권선구 산업로156번길 142-10, 1층 A-117호 (고색동, 수원벤처밸리Ⅱ)",경기도 수원시 권선구 고색동 1152번지 수원벤처밸리Ⅱ A-117호,37.2383822,126.986372
세븐일레븐 수원호매실점,영업,"경기도 수원시 권선구 호매실로218번길 111, 상가동 101호 (호매실동, 호매실마을13단지)",경기도 수원시 권선구 호매실동 1371번지 호매실마을13단지 상가동 101호,37.26484769,126.9593999
이마트24광교호수공원점,영업,"경기도 수원시 영통구 센트럴파크로 6, 상가301동 지2층 148호 (하동, 힐스테이트 광교)",경기도 수원시 영통구 하동 1021번지 힐스테이트 광교 301동 148호,37.2852929,127.0646325
GS25수원세지로점,영업,"경기도 수원시 팔달구 세지로234번길 4, 1층 (인계동)",경기도 수원시 팔달구 인계동 820-6번지 ,37.2718187,127.0240894
씨유수원메르디앙점,영업,"경기도 수원시 팔달구 중부대로143번길 81, 1층 (우만동)",경기도 수원시 팔달구 우만동 552-21번지,37.2817641,127.032865
세븐일레븐수원율전중앙점,영업,"경기도 수원시 장안구 화산로 231-10, 101호 (율전동)",경기도 수원시 장안구 율전동 296-23번지 동경빌딩 101호,37.2992616,126.9710873
미니스톱 탑동가온점,영업,"경기도 수원시 권선구 탑동로48번길 12, 1층 (탑동)",경기도 수원시 권선구 탑동 790-2번지 1층,37.2731237,126.9747852
GS25 수원율현점,영업,"경기도 수원시 팔달구 일월로22번길 10, 리더스빌딩 1층 (화서동)",경기도 수원시 팔달구 화서동 725-3번지 리더스빌딩 1층,37.2853429,126.9806445
GS25 광교센타점,영업,"경기도 수원시 영통구 법조로149번길 127, 1층 102호 (하동)",경기도 수원시 영통구 하동 972번지 102호,37.2927327,127.0694429
세븐일레븐(수원곡반하나점),영업,"경기도 수원시 권선구 경수대로54번길 92, 1층 (곡반정동)",경기도 수원시 권선구 곡반정동 592-10번지,37.2346868,127.0261413
세븐일레븐 수원호매실원룸점,영업,"경기도 수원시 권선구 금곡로102번길 45, 1층 106호 (금곡동)",경기도 수원시 권선구 금곡동 1086-2번지 106호,37.2721563,126.9418749
GS25 장안한길,영업,경기도 수원시 장안구 창훈로66번길 16-3 (연무동),경기도 수원시 장안구 연무동 11-36번지,37.2982087,127.0290594
세븐일레븐 수원세류본점,영업,"경기도 수원시 권선구 덕영대로 1090, 1층 (세류동)",경기도 수원시 권선구 세류동 544-35번지 1층 ,37.25357451,127.0108625
CU(씨유)수원중앙점,영업,"경기도 수원시 팔달구 행궁로 85, 1층 (중동)",경기도 수원시 팔달구 중동 1-7번지 1층,37.2749284,127.015758
미니스톱 영통래미안점,영업,"경기도 수원시 영통구 권선로908번길 47, 1층 (신동)",경기도 수원시 영통구 신동 937-4번지,37.2469088,127.044618
GS25 수원당수,영업,"경기도 수원시 권선구 당진로 17, 104,105호 (당수동)","경기도 수원시 권선구 당수동 232-6번지 104,105호",37.2906805,126.9401796
세븐일레븐(수원세지로점),영업,"경기도 수원시 권선구 세권로108번길 42, 1층 (세류동)",경기도 수원시 권선구 세류동 1011-31번지,37.2558537,127.0149995
씨유수원곡반정점,영업,"경기도 수원시 권선구 경수대로54번길 99-6 (곡반정동, 씨유수원곡반정점 내)",경기도 수원시 권선구 곡반정동 584-6번지 씨유수원곡반정점 내,37.2352454,127.0263893
GS25율전신일점,영업,"경기도 수원시 장안구 화산로 263, 상가동 103호 (율전동, 신일아파트)",경기도 수원시 장안구 율전동 319번지 신일아파트상가동 103호,37.2995668,126.9670945
씨유광교앨리웨이점,영업,"경기도 수원시 영통구 광교호수공원로 80, I동 1층 105호 (원천동, 광교아이파크)",경기도 수원시 영통구 원천동 593번지 광교아이파크 I동 105호,37.2739327,127.0611393
수원도시공사 연화장사업소매점,영업,경기도 수원시 영통구 광교호수로 278 (하동),경기도 수원시 영통구 하동 20번지,37.2898493,127.0840557
GS25 수원한라,영업,"경기도 수원시 팔달구 중부대로 110, 103호 (인계동, 한라시그마펠리스 상가)",경기도 수원시 팔달구 인계동 206번지 한라시그마펠리스 상가 103호,37.27735012,127.0287478
미니스톱수원베스트점(스넥코너),영업,"경기도 수원시 권선구 효원로266번길 25 (권선동,1층)",경기도 수원시 권선구 권선동 1014-5번지 1층,37.2604644,127.0303314
미니스톱영화북문점,영업,"경기도 수원시 장안구 팔달로259번길 18, 1층 1호 (영화동)",경기도 수원시 장안구 영화동 326-6번지 1호,37.2896244,127.0128961
세븐일레븐(수원정진점),영업,경기도 수원시 팔달구 권광로124번길 27 (인계동),경기도 수원시 팔달구 인계동 1132-21번지 ,37.25843671,127.0322471
미니스톱영통뉴월드,영업,"경기도 수원시 영통구 봉영로 1569 (영통동,(109호))",경기도 수원시 영통구 영통동 960-3번지 (109호) ,37.25198741,127.0709739
GS25천천원룸점,영업,"경기도 수원시 장안구 일월로76번길 12, 1층 (천천동)",경기도 수원시 장안구 천천동 385-33번지,37.2895951,126.9775081
미니스톱 수원능실점,영업,"경기도 수원시 권선구 호매실로166번길 63, 상가동 102호 (호매실동, 능실마을19단지)",경기도 수원시 권선구 호매실동 1394번지 능실마을19단지 상가동 102호,37.2597935,126.9610937
미니스톱 망포벽산점,영업,"경기도 수원시 영통구 영통로90번길 4-20, 1층 (망포동)",경기도 수원시 영통구 망포동 485-14번지,37.2379909,127.0605595
CU매탄주공점,영업,"경기도 수원시 영통구 매여울로67번길 48, 1층 (매탄동)",경기도 수원시 영통구 매탄동 153-36번지,37.27449,127.042615
세븐일레븐 서수원푸르지오점,영업,"경기도 수원시 권선구 입북로77번길 62, 상가동 1층 105호 (입북동, 서수원 레이크 푸르지오 1단지)",경기도 수원시 권선구 입북동 814번지 서수원 레이크 푸르지오 1단지 상가동 105호,37.30003923,126.9529282
세븐일레븐 수원천로점,영업,경기도 수원시 장안구 팔달로316번길 39 (영화동),경기도 수원시 장안구 영화동 37-264번지,37.290876,127.0203055
gs25수원팅스점,영업,"경기도 수원시 팔달구 덕영대로895번길 41, 1층 (매산로1가)",경기도 수원시 팔달구 매산로1가 115-1번지 1층,37.2700726,127.0009202
세븐일레븐수원파장중앙점,영업,"경기도 수원시 장안구 수일로91번길 2, 1층 (파장동)",경기도 수원시 장안구 파장동 413-12번지,37.3098979,127.0009756
지에스(GS)25 구운중앙,영업,"경기도 수원시 권선구 구운로47번길 6, 1층 (구운동)",경기도 수원시 권선구 구운동 947-8번지 1층,37.2778447,126.9730583
GS25시편의점 벨섬시티,영업,"경기도 수원시 권선구 호매실로218번길 22, 상가-1동 1층 101호 (호매실동, 호매실마을 14단지 벨섬시티)",경기도 수원시 권선구 호매실동 1380번지 호매실마을 14단지 벨섬시티 101호,37.26262252,126.9604271
세븐일레븐(수원인계5호점),영업,경기도 수원시 팔달구 경수대로565번길 9 (인계동),경기도 수원시 팔달구 인계동 953-12번지 ,37.27612455,127.0295028
GS25 수원성대점,영업,"경기도 수원시 장안구 서부로2126번길 9, 1층 (율전동)",경기도 수원시 장안구 율전동 288-4번지,37.2980905,126.9721142
GS25 영화중앙점,영업,경기도 수원시 장안구 수성로290번길 31 (영화동),경기도 수원시 장안구 영화동 405-1번지 ,37.28959787,127.0050585
미니스톱 수원현정점,영업,"경기도 수원시 권선구 경수대로384번길 42, 1층 (권선동)",경기도 수원시 권선구 권선동 1020번지,37.2597354,127.0264195
GS25수원문화,영업,경기도 수원시 권선구 경수대로 295 (세류동),경기도 수원시 권선구 세류동 1100-4번지,37.2532942,127.0199249
GS25 수원신흥,영업,"경기도 수원시 권선구 덕영대로1126번길 49, 1층 (세류동)",경기도 수원시 권선구 세류동 1139-21번지 1층,37.249853,127.0132515
GS25호매실타운점,영업,"경기도 수원시 권선구 금곡로102번길 126, 상가동 1층 101호 (호매실동, 수원호매실휴먼시아7단지아파트)",경기도 수원시 권선구 호매실동 1340번지 수원호매실휴먼시아7단지아파트 상가동 101호,37.2687683,126.9417649
지에스25영통미리내,영업,경기도 수원시 영통구 봉영로1492번길 50 (영통동),경기도 수원시 영통구 영통동 986-7번지,37.2451592,127.0681162
대한매점,영업,경기도 수원시 팔달구 경수대로507번길 12-17 (인계동),경기도 수원시 팔달구 인계동 961-1번지,37.2721514,127.0275621
미니스톱 수원3공단점,영업,"경기도 수원시 권선구 산업로156번길 201 (고색동, DM프라자, 106호 일부)","경기도 수원시 권선구 고색동 1102번지 DM프라자, 106호 일부",37.2417161,126.9871489
GS25 성대복지회관점,영업,"경기도 수원시 장안구 서부로 2066, 성균관대학교 복지회관 지하1층 (천천동)",경기도 수원시 장안구 천천동 300번지 성균관대학교 복지회관 ,37.29334303,126.9757025
(주)비지에프휴먼넷 수원kt위즈파크6호점,영업,"경기도 수원시 장안구 경수대로 893, 수원종합운동장(야구장) 5층 G504호 (조원동)",경기도 수원시 장안구 조원동 775번지 수원종합운동장(야구장) G504호,37.2978149,127.0106979
GS25호매실모아,영업,"경기도 수원시 권선구 서수원로577번길 341, B116호 (금곡동, 수원모아미래도센트럴타운1단지)",경기도 수원시 권선구 금곡동 1078번지 수원모아미래도센트럴타운1단지 B116호,37.2755421,126.938095
GS25성대학사,영업,경기도 수원시 장안구 서부로2126번길 33 (율전동),경기도 수원시 장안구 율전동 290-19번지 ,37.29787465,126.9734564
씨유광교카페거리점,영업,"경기도 수원시 영통구 센트럴파크로127번길 122, 1층 (이의동)",경기도 수원시 영통구 이의동 1321-12번지 1층,37.2936234,127.0540495
세븐일레븐 수원세류사거리점,영업,"경기도 수원시 권선구 정조로495번길 7-1, 1층 (세류동)",경기도 수원시 권선구 세류동 565-2번지 1층,37.2532681,127.0108624
GS25에이스광교,영업,"경기도 수원시 영통구 대학4로 17, 1층 104호 (이의동, 에이스광교)",경기도 수원시 영통구 이의동 1248-3번지 에이스광교 104호,37.3004292,127.0464408
GS25수원곡반정점,영업,"경기도 수원시 권선구 경수대로54번길 58, 1층 (곡반정동, GS25수원곡반정점)",경기도 수원시 권선구 곡반정동 604-1번지 1층,37.2340744,127.0243606
미니스톱 곡반중앙점,영업,"경기도 수원시 권선구 동수원로146번길 188 (곡반정동, 1층일부)",경기도 수원시 권선구 곡반정동 526-11번지 1층일부,37.2424882,127.0330297
세븐일레븐 곡선로점,영업,경기도 수원시 권선구 곡선로50번길 35 (곡반정동),경기도 수원시 권선구 곡반정동 575-12번지,37.237128,127.0290608
GS수원은혜점,영업,"경기도 수원시 권선구 세권로 304, 1층 (권선동)",경기도 수원시 권선구 권선동 1286-2번지 1층,37.2520471,127.0370575
씨유 수원고색중앙점,영업,"경기도 수원시 권선구 서둔로 15, 1층 (고색동)",경기도 수원시 권선구 고색동 888-113번지,37.2531857,126.9837875
이마트24 오목천아름점,영업,"경기도 수원시 권선구 오목천로57번길 10-21, 1층 (오목천동)",경기도 수원시 권선구 오목천동 213-1번지,37.2405772,126.969816
세븐일레븐(수원권선2호점),영업,경기도 수원시 권선구 덕영대로1217번길 25-2 (권선동),경기도 수원시 권선구 권선동 1197-7번지 ,37.24995974,127.0241172
씨유 수원인계로데오,영업,"경기도 수원시 팔달구 권광로187번길 26, 1층 (인계동)",경기도 수원시 팔달구 인계동 1041-5번지,37.2648522,127.0313364
씨유매탄중앙점,영업,경기도 수원시 영통구 매여울로57번길 2 (매탄동),경기도 수원시 영통구 매탄동 139-9번지,37.2730748,127.0441927
씨유 인계중앙점,영업,"경기도 수원시 팔달구 권광로207번길 13, 1층 102호 (인계동)",경기도 수원시 팔달구 인계동 1038번지 1층 102호,37.2659872,127.0325318
GS25 수원백성,영업,경기도 수원시 팔달구 경수대로466번길 9 (인계동),경기도 수원시 팔달구 인계동 1019-11번지,37.2676011,127.0278086
미니스톱 수원성균관대점,영업,경기도 수원시 장안구 화산로233번길 42 (율전동),경기도 수원시 장안구 율전동 433-93번지,37.2978737,126.970118
씨유 오목천 영신점,영업,"경기도 수원시 권선구 오목천로57번길 33 (오목천동, 1층 씨유오목천영신점 편의점 내부)",경기도 수원시 권선구 오목천동 545-4번지,37.2414057,126.9680349
세븐일레븐 영통1단지점,영업,"경기도 수원시 영통구 영통로514번길 52, 상가 나동 1층 104호 (영통동)",경기도 수원시 영통구 영통동 955-6번지 황골주공1단지 상가동 104호 ,37.26437955,127.0807704
(주)GS25수원역1점,영업,경기도 수원시 팔달구 덕영대로 924 (매산로1가),경기도 수원시 팔달구 매산로1가 18번지 번지 외1필지(지상2층),37.266072,126.999838
GS25(고색산단점),영업,"경기도 수원시 권선구 오목천로152번길 68, 1층 117호 (고색동, 골든프라자)",경기도 수원시 권선구 고색동 950번지 골든프라자 117호,37.2414352,126.9779526
씨유수원곡선점,영업,"경기도 수원시 권선구 동수원로36번길 5-16, 1층 (곡반정동)",경기도 수원시 권선구 곡반정동 587-13번지,37.2350745,127.0248905
미니스톱영통경희대점,영업,"경기도 수원시 영통구 영일로6번길 17, 1층 101호 (영통동)",경기도 수원시 영통구 영통동 1023-5번지 ,37.24827174,127.0766962
세븐일레븐(수원인계2호점),영업,"경기도 수원시 팔달구 효원로291번길 53 (인계동,백광빌딩)",경기도 수원시 팔달구 인계동 1120-5번지 백광빌딩 ,37.26365313,127.0343347
세븐일레븐 수원터미널점,영업,"경기도 수원시 권선구 경수대로 270, 1310호 (권선동,복합터미널 1층)",경기도 수원시 권선구 권선동 1189번지 복합터미널 1층 1310호,37.2503477,127.0208372
씨유수원미래사랑,영업,"경기도 수원시 권선구 효원로230번길 38, 101동 1층 106호 (권선동, 올림픽공원미래사랑)",경기도 수원시 권선구 권선동 1011-14번지 올림픽공원미래사랑 101동 106호,37.2610961,127.0259014
GS25 영통방죽점,영업,"경기도 수원시 영통구 영통로217번길 21, 1층 (영통동)",경기도 수원시 영통구 영통동 978-2번지 GS25,37.2465709,127.0557533
지에스25 호매실중앙(GS25),영업,"경기도 수원시 권선구 호매실로218번길 126, 1층 103호 (호매실동, 현대프라자)",경기도 수원시 권선구 호매실동 1375번지 현대프라자 103호 ,37.26601055,126.9608761
CU 인계우리점,영업,"경기도 수원시 팔달구 경수대로421번길 13, 1층 (인계동)",경기도 수원시 팔달구 인계동 1013-3번지 1층,37.2638806,127.0244254
GS25수원권선,영업,"경기도 수원시 권선구 권중로76번길 4, 1층 (권선동)",경기도 수원시 권선구 권선동 1258-11번지 1층,37.2522652,127.0298663
씨유광교에듀점,영업,"경기도 수원시 영통구 에듀타운로 24, 그린메디칼 104호 (이의동)",경기도 수원시 영통구 이의동 1341-4번지 그린메디칼 104호,37.2851545,127.0522508
미니스톱수원파장점,영업,경기도 수원시 장안구 장안로 264-11 (정자동),경기도 수원시 장안구 정자동 435-1번지,37.3059509,126.9920647
GS25권선중앙점,영업,"경기도 수원시 권선구 장다리로 101, 1층 (권선동)",경기도 수원시 권선구 권선동 972-14번지 ,37.25918676,127.0213692
지에스(GS)25영통학사점,영업,"경기도 수원시 영통구 영일로6번길 43 (영통동,1층)",경기도 수원시 영통구 영통동 1021-7번지 1층 ,37.24827083,127.0781389
미니스톱조원점,영업,경기도 수원시 장안구 조원로 91 (조원동),경기도 수원시 장안구 조원동 743-5번지 ,37.30089607,127.0155031
세븐일레븐 수원구운점,영업,"경기도 수원시 권선구 구운로63번길 2, 1층 (구운동)",경기도 수원시 권선구 구운동 942-6번지 ,37.27932233,126.9726518
씨유장안힐스테이트점,영업,"경기도 수원시 장안구 장안로359번길 20, 지하1층 103호 (이목동, 수원장안힐스테이트)",경기도 수원시 장안구 이목동 916번지 수원장안힐스테이트 상가 지하1층 103호,37.3123743,126.9842576
씨유수원이노플렉스점,영업,"경기도 수원시 영통구 신원로 304 (원천동, 554외4필지 영통이노플렉스-2단지 3동 105호)",경기도 수원시 영통구 원천동 554번지 외4필지 영통이노플렉스2단지 3동 105호,37.2621023,127.0609724
세븐일레븐수원상탑로점,영업,"경기도 수원시 권선구 서둔로 223, 1층 (탑동)",경기도 수원시 권선구 탑동 318-1번지,37.2713767,126.9789574
미니스톱수원매탄점,영업,경기도 수원시 영통구 인계로 293-1 (매탄동),경기도 수원시 영통구 매탄동 815-5번지,37.2631795,127.0495534
GS25수원서둔점,영업,"경기도 수원시 권선구 여기산로 16, 1층 (서둔동)",경기도 수원시 권선구 서둔동 260-29번지 ,37.27879454,126.9787169
세븐일레븐 영통5단지점,영업,"경기도 수원시 영통구 영통로290번길 25, 상가 나동 1층 101호 (영통동)",경기도 수원시 영통구 영통동 964-5번지 상가나동 101호,37.25212676,127.0632529
GS25권선오길점,영업,경기도 수원시 권선구 권선로682번길 38 (권선동),경기도 수원시 권선구 권선동 1034-7번지,37.2576273,127.0248632
미니스톱세류주공점,영업,"경기도 수원시 권선구 세권로 16 (세류동, 1층일부)",경기도 수원시 권선구 세류동 253-4번지 1층일부 ,37.25984591,127.0060384
위드미편의점,영업,경기도 수원시 장안구 영화로97번길 32 (정자동),경기도 수원시 장안구 정자동 37-27번지,37.2942922,127.0033669
GS25장안수일로점,영업,경기도 수원시 장안구 수일로92번길 9 (파장동),경기도 수원시 장안구 파장동 525-1번지 ,37.30937535,127.0006711
세븐일레븐 수성로점,영업,"경기도 수원시 장안구 수성로290번길 73, 1층 (영화동)",경기도 수원시 장안구 영화동 419-8번지 ,37.28798501,127.0062876
GS25수원수인점,영업,"경기도 수원시 권선구 수인로 275, 1층 (구운동)",경기도 수원시 권선구 구운동 921-4번지 1층내,37.281818,126.9722561
세븐일레븐(수원영통점),영업,"경기도 수원시 영통구 청명로 7 (영통동,청명타운텔)",경기도 수원시 영통구 영통동 1021-4번지 청명타운텔 ,37.24835146,127.0788604
미니스톱수원구운점,영업,경기도 수원시 권선구 구운로86번길 3 (구운동),경기도 수원시 권선구 구운동 476번지,37.2811245,126.9732599
GS25세류유천,영업,"경기도 수원시 권선구 정조로565번길 3, 1층 (세류동)",경기도 수원시 권선구 세류동 476-9번지 1층,37.259404,127.0122834
GS편의점 고등오거리점,영업,"경기도 수원시 팔달구 고화로62번길 1, 1층 (고등동)",경기도 수원시 팔달구 고등동 29-16번지 1층,37.274821,127.0063659
CU광교센트럴비즈점,영업,"경기도 수원시 영통구 창룡대로 260, 광교 센트럴비즈타워 1층 104호 (이의동)",경기도 수원시 영통구 이의동 1283번지 광교 센트럴비즈타워 104호,37.29537744,127.037393
미니스톱화서벽산점,영업,"경기도 수원시 팔달구 팔달로165번길 39, B01호 (화서동)",경기도 수원시 팔달구 화서동 11-41번지 ,37.28362409,127.0034458
(수원영화점)GS25편의점,영업,경기도 수원시 장안구 장안로18번길 1 (영화동),경기도 수원시 장안구 영화동 425-16번지,37.2867866,127.0064228
GS25수원일월점,영업,경기도 수원시 권선구 일월천로15번길 5-2 (구운동),경기도 수원시 권선구 구운동 901-2번지,37.2836832,126.9725373
미니스톱 세류중앙점,영업,"경기도 수원시 권선구 정조로 523, 1층 (세류동)",경기도 수원시 권선구 세류동 459-3번지 1층,37.2558811,127.0109528
GS25우만싱싱점,영업,"경기도 수원시 팔달구 경수대로656번길 63, 1층 (우만동)",경기도 수원시 팔달구 우만동 503-17번지 ,37.2855668,127.0314795
미니스톱 화서동말점,영업,경기도 수원시 팔달구 동말로 50 (화서동),경기도 수원시 팔달구 화서동 114-2번지,37.2785692,126.9995556
GS25권선곡선점,영업,"경기도 수원시 권선구 동수원로146번길 144-2, 1층 (곡반정동)",경기도 수원시 권선구 곡반정동 512-6번지 1층,37.2444342,127.0340336
GS25수원그랜드점,영업,경기도 수원시 권선구 세지로28번길 13 (세류동),경기도 수원시 권선구 세류동 1091-10번지,37.254466,127.0163971
씨유 수원세종타운점,영업,"경기도 수원시 권선구 금곡로 204, 세종타운721 1층 121호 (금곡동)",경기도 수원시 권선구 금곡동 1118-1번지 세종타운721,37.2735942,126.9532613
GS25금곡우성점,영업,"경기도 수원시 권선구 금곡로 106, 112호 (금곡동, 우성메디피아)",경기도 수원시 권선구 금곡동 1085-2번지 우성메디피아 112호,37.2738773,126.9419862
씨유연무스타점,영업,경기도 수원시 장안구 연무로42번길 41 (연무동),경기도 수원시 장안구 연무동 216-22번지 ,37.29659623,127.0278408
미니스톱 고색산단1점,영업,"경기도 수원시 권선구 산업로 180, DH테크타워 1층 115,116호 (고색동)","경기도 수원시 권선구 고색동 1094번지 DH테크타워 115,6호",37.2423554,126.9841171
GS25영통망포점,영업,"경기도 수원시 영통구 영통로112번길 24, 1층 (망포동)",경기도 수원시 영통구 망포동 540-15번지,37.2390198,127.0567736
미니스톱수원연무점,영업,경기도 수원시 장안구 연무로 54 (연무동),경기도 수원시 장안구 연무동 233-21번지,37.2957316,127.0258104
미니스톱수원세류2점,영업,경기도 수원시 권선구 정조로 588 (세류동),경기도 수원시 권선구 세류동 167-1번지,37.261269,127.0138055
GS25수원정연,영업,"경기도 수원시 장안구 대평로 80, 120호 (정자동)",경기도 수원시 장안구 정자동 877-4번지 120호,37.2954812,126.9935662
씨유세류일등점,영업,"경기도 수원시 권선구 경수대로225번길 72, 1층 (세류동)",경기도 수원시 권선구 세류동 1148번지 1층,37.2489878,127.0152239
GS25 장안천천,영업,경기도 수원시 장안구 덕영대로511번길 27 (천천동),경기도 수원시 장안구 천천동 506-8번지,37.2990113,126.979975
미니스톱 수원병무청점,영업,"경기도 수원시 팔달구 고화로 129-1, 101동 201호 (화서동)",경기도 수원시 팔달구 화서동 58-3번지 101동 201호,37.2810651,127.0063324
씨유권선향원점,영업,경기도 수원시 권선구 세지로82번길 4 (권선동),경기도 수원시 권선구 권선동 999번지,37.2589349,127.0179986
세븐일레븐 영통9단지점,영업,"경기도 수원시 영통구 봉영로1517번길 73, 상가동 1층 108,109호 (영통동, 삼성.태영 아파트)",경기도 수원시 영통구 영통동 969-1번지 삼성.태영 아파트 ,37.24918915,127.063724
세븐일레븐(수원인계3호점),영업,"경기도 수원시 팔달구 인계로138번길 36 (인계동,외2필지(1040-5,1040-11))","경기도 수원시 팔달구 인계동 1040-4번지 외2필지(1040-5,1040-11) ",37.26546487,127.0316974
씨유 수원현대점,영업,"경기도 수원시 장안구 경수대로1020번길 6, 일층 (송죽동)",경기도 수원시 장안구 송죽동 481번지 (일층) ,37.3070417,127.0005922
세븐일레븐(수원영통4호점),영업,경기도 수원시 영통구 봉영로1482번길 17-4 (영통동),경기도 수원시 영통구 영통동 985-5번지 ,37.24518695,127.0668089
씨유 수원세류타운점,영업,"경기도 수원시 권선구 정조로525번길 16, 1층 (세류동)",경기도 수원시 권선구 세류동 460-33번지 1층,37.2560974,127.0102878
미니스톱영통아셈점,영업,"경기도 수원시 영통구 청명남로 21 (영통동,아셈프라자 109호)",경기도 수원시 영통구 영통동 998-6번지 아셈프라자 109호,37.2519944,127.0743891
GS25 수원천로,영업,"경기도 수원시 권선구 수원천로 5, 1층 (세류동)",경기도 수원시 권선구 세류동 454-7번지,37.25571,127.0085293
세븐일레븐 서둔중앙점,영업,"경기도 수원시 권선구 세화로151번길 18-18, 1층 (서둔동)",경기도 수원시 권선구 서둔동 17-276번지,37.2659004,126.9925665
GS25권선구운점,영업,"경기도 수원시 권선구 구운로 12-1, 1층 (구운동)",경기도 수원시 권선구 구운동 504-13번지,37.2769896,126.9767005
씨유수원화서,영업,경기도 수원시 팔달구 팔달로119번길 16 (화서동),경기도 수원시 팔달구 화서동 71-93번지,37.2792901,127.0028143
GS25매산중앙,영업,"경기도 수원시 팔달구 효원로60번길 30, 1층 (매산로3가)",경기도 수원시 팔달구 매산로3가 94-1번지 1층,37.2676577,127.007617
미니스톱인계3점,영업,경기도 수원시 팔달구 인계로108번길 31 (인계동),경기도 수원시 팔달구 인계동 1033번지,37.2662944,127.0290596
미니스톱 광교 아르데코,영업,"경기도 수원시 영통구 광교로42번길 80, 1층 103호 (이의동, 광교아르데코 )",경기도 수원시 영통구 이의동 1358번지 광교아르데코 103호,37.2864009,127.0445044
GS25영통해광점,영업,"경기도 수원시 영통구 청명로21번길 15, 해광빌딩 1층일부 1층 (영통동)",경기도 수원시 영통구 영통동 1013-16번지 해광빌딩,37.2497929,127.0790534
미니스톱아주대점,영업,"경기도 수원시 팔달구 아주로47번길 32 (우만동, 플러스빌오피스텔 101호)",경기도 수원시 팔달구 우만동 45-1번지,37.2792386,127.0418845
GS25팔달신우편의점,영업,"경기도 수원시 팔달구 화양로29번길 2, 1층 (화서동)",경기도 수원시 팔달구 화서동 206-4번지,37.2807316,126.9968719
미니스톱팔달우만점,영업,경기도 수원시 팔달구 팔달문로140번길 38 (우만동),경기도 수원시 팔달구 우만동 559번지,37.2807643,127.0317821
씨유 광교유니코어,영업,"경기도 수원시 영통구 도청로 95, 유니코어 106호 (이의동)",경기도 수원시 영통구 이의동 1351-6번지 유니코어 106호,37.2907878,127.0476081
GS25세류덕영점,영업,"경기도 수원시 권선구 세권로 1, 1층 101호 (세류동, 엘에이치수원센트럴타운3단지상가동)",경기도 수원시 권선구 세류동 1280번지 엘에이치수원센트럴타운3단지상가동 101호,37.26012523,127.0060609
GS25호매실한양점,영업,"경기도 수원시 권선구 칠보로 102, 상가2동 1층 110호 (호매실동, 한양수자인파크원)",경기도 수원시 권선구 호매실동 1361번지 한양수자인파크원 상가2동 110호,37.2645109,126.9511479
GS25 율전성대점,영업,"경기도 수원시 장안구 서부로2105번길 29, 우정상가 (율전동)",경기도 수원시 장안구 율전동 408-16번지 우정상가,37.2967019,126.9685057
지에스25 수원토란점,영업,"경기도 수원시 영통구 반달로35번길 19, 110,111호 (영통동, 대원빌딩)",경기도 수원시 영통구 영통동 1010-9번지 대원빌딩,37.2516058,127.0762486
GS25 광교힐스점,영업,"경기도 수원시 영통구 센트럴파크로 6, 127호 (하동, 힐스테이트 광교)",경기도 수원시 영통구 하동 1021번지 힐스테이트 광교 127호,37.2852929,127.0646325
지에스25인계복개천점,영업,"경기도 수원시 팔달구 경수대로479번길 19, 1층 (인계동)",경기도 수원시 팔달구 인계동 967번지 1층,37.2690972,127.0260842
GS25 권선골드,영업,"경기도 수원시 권선구 세지로140번길 2, 1층 (권선동)",경기도 수원시 권선구 권선동 950번지 1층,37.2638181,127.0205361
GS25고색3산단점,영업,"경기도 수원시 권선구 산업로 182, 102호 (고색동, 대명프라자)",경기도 수원시 권선구 고색동 1097번지 대명프라자 102호,37.2426528,126.9846241
지에스25 권선SK점,영업,"경기도 수원시 권선구 권선로694번길 26, 110동 1층 104호 (권선동, 권선 SK VIEW)",경기도 수원시 권선구 권선동 1035번지 권선 SK VIEW 110동 104호,37.25837212,127.0266728
보람크레페,영업,"경기도 수원시 권선구 동수원로 232 (권선동,GS마트 지하1층)",경기도 수원시 권선구 권선동 1296-5번지 GS마트 지하1층,37.2501826,127.0346446
미니스톱삼성신동점,영업,"경기도 수원시 영통구 신원로 228 (매탄동, 492-7번지 1층)",경기도 수원시 영통구 매탄동 492-7번지 (1층),37.2560747,127.0602802
씨유수원운동장점,영업,"경기도 수원시 장안구 송원로 49-1, 1층 (송죽동)",경기도 수원시 장안구 송죽동 504-2번지 ,37.29978839,127.0074724
이마트24수원호매실점,영업,"경기도 수원시 권선구 매곡로 43, 1층 102호 (금곡동, 호반베르디움 더 센트럴)",경기도 수원시 권선구 금곡동 1147번지 호반베르디움 더 센트럴 102호,37.2704848,126.9513467
GS25 영통아이파크,영업,"경기도 수원시 영통구 반달로35번길 30, 1층 105,106호 (영통동)","경기도 수원시 영통구 영통동 1012-1번지 영통역 아이파크 105,106호",37.2517672,127.0774097
미니스톱연무2점,영업,경기도 수원시 장안구 창훈로60번길 21 (연무동),경기도 수원시 장안구 연무동 11-16번지 ,37.29815459,127.0297248
지에스(GS)25정자권호,영업,"경기도 수원시 장안구 수성로275번길 108, 1층 (정자동)",경기도 수원시 장안구 정자동 31-11번지,37.2945985,126.9993632
세븐일레븐 수원푸른점,영업,"경기도 수원시 팔달구 세지로 272, 1층 (인계동)",경기도 수원시 팔달구 인계동 746-2번지 1층 ,37.27526073,127.0236958
GS25 세류3동점,영업,"경기도 수원시 권선구 정조로 578, 1층 (세류동)",경기도 수원시 권선구 세류동 162-14번지 1층,37.26035,127.0132868
GS25권선아이파크점,영업,"경기도 수원시 권선구 덕영대로1190번길 100, 1층 109,110호 (권선동, 수원아이파크시티7단지 707동상가)","경기도 수원시 권선구 권선동 1337번지 수원아이파크시티7단지 707동상가 1층 109,110호",37.2463833,127.0199797
미니스톱 탑동센터점,영업,"경기도 수원시 권선구 상탑로 10, 1층 101,102호 (탑동, 편의점 내)","경기도 수원시 권선구 탑동 815-1번지 101,102호, 편의점내",37.270402,126.9722607
세븐일레븐 수원망포마을점,영업,"경기도 수원시 영통구 영통로173번길 23-28, 1층 101호 (망포동)",경기도 수원시 영통구 망포동 291-18번지 101호,37.242022,127.052865
GS25수원지동점,영업,"경기도 수원시 팔달구 경수대로 657-7 (지동, 샤인파크)",경기도 수원시 팔달구 지동 477-13번지 샤인파크 ,37.2836845,127.0278027
GS25 광교40단지점,영업,"경기도 수원시 영통구 광교마을로 156, 상가동 1층 101호 (하동, 광교마을40단지)",경기도 수원시 영통구 하동 1001번지 광교마을40단지 1층 상가동 101호,37.2953188,127.0836894
씨유 매탄산들점,영업,"경기도 수원시 영통구 매원로 12, 1층 (매탄동)",경기도 수원시 영통구 매탄동 209번지 ,37.2664061,127.047357
CU망포벽산점,영업,"경기도 수원시 영통구 영통로90번길 12, 1층 (망포동)",경기도 수원시 영통구 망포동 485-16번지 1층 ,37.2376308,127.0598041
씨유 광교웰빙타운점,영업,"경기도 수원시 영통구 웰빙타운로49번길 36, 에코프라자 1층 102호 (이의동)",경기도 수원시 영통구 이의동 1204-8번지 102호,37.3038979,127.0470858
미니스톱 능실마을점,영업,"경기도 수원시 권선구 호매실로166번길 10, 상가동 (호매실동, 호매실능실마을22단지, 103호 일부)","경기도 수원시 권선구 호매실동 1415번지 호매실능실마을22단지, 103호 일부 상가동 ",37.25845941,126.9594487
이마트24(수원모아점),영업,"경기도 수원시 권선구 서수원로577번길 341, 1층 101호 (금곡동, 수원모아미래도센트럴타운1단지)",경기도 수원시 권선구 금곡동 1078번지 수원모아미래도센트럴타운1단지 101호,37.2755421,126.938095
지에스25 영통벽산점,영업,"경기도 수원시 영통구 봉영로1744번길 11, 상가동 110호 (영통동, 벽산.풍림아파트)",경기도 수원시 영통구 영통동 1053-2번지 벽산.풍림아파트 상가동 110호,37.2659093,127.0836693
CU수원경서점,영업,"경기도 수원시 팔달구 중부대로106번길 34, 1층 (인계동)",경기도 수원시 팔달구 인계동 218-6번지 1층 ,37.2762958,127.029142
이마트24 알(R)수원컨벤션센터점,영업,"경기도 수원시 영통구 광교중앙로 140, 수원컨벤션센터 근생시설동 1층 100호 (하동)",경기도 수원시 영통구 하동 855-2번지 수원컨벤션센터 근생시설동 100호,37.2853493,127.0598626
GS25인계예술점,영업,"경기도 수원시 팔달구 효원로 303, 삼호파크타워 1층 105호 (인계동)",경기도 수원시 팔달구 인계동 1122-10번지 삼호파크타워 ,37.2612381,127.0350889
GS25정자벽산점,영업,경기도 수원시 장안구 정자천로188번길 49 (정자동),경기도 수원시 장안구 정자동 29-3번지,37.2944002,126.9975926
씨유지동프리미엄점,영업,"경기도 수원시 팔달구 세지로306번길 2, 1층 (지동)",경기도 수원시 팔달구 지동 123-41번지 1층 ,37.2781529,127.0239221
씨유 영통구청점,영업,"경기도 수원시 영통구 매탄로108번길 48, 삼성프라자Ⅱ 1층 104호 (매탄동)","경기도 수원시 영통구 매탄동 1266-2번지 삼성프라자Ⅱ, 1층 104호",37.25964413,127.0453401
씨유수원우만은혜점,영업,"경기도 수원시 팔달구 권광로367번길 11, 상가동 1층 (우만동, 양우 내안애 애플 아파트)","경기도 수원시 팔달구 우만동 607번지 양우 내안애 애플 아파트, 1층 상가동 ",37.2791771,127.036833
씨유탑동우방점,영업,"경기도 수원시 권선구 하탑로 21 (탑동,1층)",경기도 수원시 권선구 탑동 835-1번지 1층,37.2687626,126.9739525
세븐일레븐 수원조원벽산점,영업,경기도 수원시 장안구 조원로50번길 22 (조원동),경기도 수원시 장안구 조원동 519-38번지,37.2983455,127.0201381
씨유인계태산점,영업,"경기도 수원시 팔달구 효원로265번길 54, 1층 103,104호 (인계동)","경기도 수원시 팔달구 인계동 1113-5번지 1층, 103,104호 ",37.2643745,127.0318886
나이스 PC방,영업,경기도 수원시 영통구 삼성로168번길 100 (매탄동),경기도 수원시 영통구 매탄동 383-11번지 ,37.2612918,127.0599121
세븐일레븐 수원수일로점,영업,"경기도 수원시 장안구 경수대로 1092, 1층 (파장동)",경기도 수원시 장안구 파장동 212-23번지 1층 ,37.31000569,126.9932599
지에스25원천타운점,영업,"경기도 수원시 영통구 매영로199번길 35, 1층 (원천동)",경기도 수원시 영통구 원천동 337-14번지 ,37.2642629,127.0645026
지에스25 영통매여울점,영업,"경기도 수원시 영통구 매여울로40번길 20-1, 1층 (매탄동)",경기도 수원시 영통구 매탄동 196-32번지 ,37.2719568,127.0463342
CU우만풍림점,영업,"경기도 수원시 팔달구 세지로 439-13, 가동 1층 102호 (우만동, 풍림아파트)",경기도 수원시 팔달구 우만동 497번지 풍림아파트 ,37.2875671,127.0315817
세븐일레븐 광교더샵점,영업,"경기도 수원시 영통구 광교호수로 15, 상가동 1층 122,123호 (원천동, 광교더샵)","경기도 수원시 영통구 원천동 604번지 광교더샵 상가동 122,3호",37.27140051,127.0618026
세븐 일레븐(광교법원),영업,"경기도 수원시 영통구 광교중앙로248번길 95-1, 1층 107호 (하동)",경기도 수원시 영통구 하동 986-4번지 1층 107호,37.2914539,127.0683028
지에스25수원경수로점,영업,경기도 수원시 장안구 경수대로853번길 4 (조원동),경기도 수원시 장안구 조원동 779-1번지 ,37.2969587,127.013946
CU광교에듀하임,영업,"경기도 수원시 영통구 에듀타운로 101, 에듀하임1309오피스텔 103동 104호 (이의동)",경기도 수원시 영통구 이의동 1352번지 에듀하임1309오피스텔 103동 104호,37.2893378,127.0456451
세븐일레븐 광교에이스타워점,영업,"경기도 수원시 영통구 창룡대로256번길 91, 에이스광교타워2 109호 (이의동)",경기도 수원시 영통구 이의동 1286-1번지 에이스광교타워2 109호,37.2956194,127.041611
씨유 원천스카이점,영업,"경기도 수원시 영통구 중부대로448번길 28, 상가동 101호 (원천동, 수원 원천2단지 주공아파트)",경기도 수원시 영통구 원천동 548번지 수원 원천2단지 주공아파트 상가동 101호,37.2681305,127.0601427
CU수원제일좋은점,영업,"경기도 수원시 영통구 삼성로168번길 38, 1층 (매탄동)",경기도 수원시 영통구 매탄동 413-5번지 ,37.2585443,127.0585799
세븐일레븐(수원권선4호점),영업,경기도 수원시 권선구 세지로82번길 42 (권선동),경기도 수원시 권선구 권선동 994번지 ,37.25821383,127.0201403
GS25 광교혜령,영업,"경기도 수원시 영통구 센트럴파크로127번길 83, 1층 (이의동, GS25)",경기도 수원시 영통구 이의동 1308-4번지 1층GS25,37.2939846,127.0522227
씨유수원매곡로점,영업,"경기도 수원시 권선구 서수원로523번길 30-17, 1층 (금곡동)",경기도 수원시 권선구 금곡동 1135-5번지,37.2711812,126.9575359
GS25 수원임광,영업,"경기도 수원시 영통구 동수원로 316, 1층 118,119,120호 (매탄동, 임광아파트)","경기도 수원시 영통구 매탄동 1162번지 임광아파트  118, 119, 120호",37.2572636,127.0385253
세븐일레븐 수원써미트빌점,영업,경기도 수원시 권선구 덕영대로1323번길 26-24 (권선동),경기도 수원시 권선구 권선동 1323번지,37.2463524,127.0374494
GS25 망포늘푸른점,영업,"경기도 수원시 영통구 영통로90번길 24, 102호 (망포동)",경기도 수원시 영통구 망포동 485-4번지 102호,37.2381895,127.059613
GS25 고색대성점,영업,"경기도 수원시 권선구 매송고색로711번길 10, 1층 (고색동)",경기도 수원시 권선구 고색동 890-130번지,37.2517708,126.9819844
이마트24 수원행궁점,영업,"경기도 수원시 팔달구 행궁로 41, 1층 (남창동)",경기도 수원시 팔달구 남창동 110번지 ,37.2787398,127.0153415
씨유수원서둔스카이점,영업,"경기도 수원시 권선구 서호동로 26, 1층 (서둔동)",경기도 수원시 권선구 서둔동 46-4번지 1층 ,37.268297,126.9910329
세븐일레븐 수원탑동로점,영업,"경기도 수원시 권선구 탑동로36번길 15, 1층 101호 (탑동, 가림주택)",경기도 수원시 권선구 탑동 793-1번지 가림주택 101호,37.272349,126.9753154
GS25인계골드,영업,"경기도 수원시 팔달구 장다리로 323, 1층 (인계동)",경기도 수원시 팔달구 인계동 939-11번지 ,37.2767909,127.0312506
씨유수원금곡소망점,영업,"경기도 수원시 권선구 금곡로197번길 59-37, 1층 (금곡동)",경기도 수원시 권선구 금곡동 1105-12번지 1층,37.275874,126.953677
씨유매탄산드래미점,영업,"경기도 수원시 영통구 매탄로168번길 32 (매탄동, 840-1번지 1층일부)",경기도 수원시 영통구 매탄동 840-1번지,37.2646852,127.0471079
미니스톱 세류제일점,영업,"경기도 수원시 권선구 세지로87번길 11, 1층 (세류동)",경기도 수원시 권선구 세류동 853번지 1층,37.2597369,127.01739
위드미,영업,"경기도 수원시 권선구 수인로 291, 1층 (구운동)",경기도 수원시 권선구 구운동 925번지 1층,37.2823491,126.9701698
미니스톱인계하이엘점,영업,경기도 수원시 팔달구 효원로219번길 48 (인계동),경기도 수원시 팔달구 인계동 1025-10번지,37.2653488,127.0269173
세븐일레븐 롯데몰수원역점,영업,"경기도 수원시 권선구 세화로 134, 지하1층 (서둔동, 롯데몰수원점)",경기도 수원시 권선구 서둔동 296-77번지 롯데몰수원점 지하1층 ,37.26409867,126.9970649
씨유영통조달청점,영업,"경기도 수원시 영통구 반달로 100, 1층 (영통동)",경기도 수원시 영통구 영통동 1037-13번지,37.2525781,127.0775796
CU탑동하늘점,영업,경기도 수원시 권선구 상탑로 52 (탑동),경기도 수원시 권선구 탑동 300-17번지,37.2712951,126.9768153
GS25광교따복,영업,"경기도 수원시 영통구 창룡대로 250, 1,2호 (이의동, 수원광교 따복하우스)","경기도 수원시 영통구 이의동 1284번지 수원광교 따복하우스 1,2호",37.2947919,127.0368626
GS25 세류센타점,영업,"경기도 수원시 권선구 경수대로277번길 14-1, 1층 (세류동)",경기도 수원시 권선구 세류동 1103-29번지 1층,37.2521861,127.0185044
CU수원모아미래도점,영업,"경기도 수원시 권선구 서수원로577번길 305, B203호 (금곡동, 수원모아미래도센트럴타운2단지)",경기도 수원시 권선구 금곡동 1077번지 수원모아미래도센트럴타운2단지 B203호,37.27548934,126.9403952
이마트24 수원당수점,영업,"경기도 수원시 권선구 당진로15번길 53, 101호 (당수동, 인정프린스아파트상가동)",경기도 수원시 권선구 당수동 287번지 인정프린스아파트상가동 101호,37.2917605,126.9379232
이마트24파장행복점,영업,"경기도 수원시 장안구 경수대로1043번길 8, 1층 (파장동)",경기도 수원시 장안구 파장동 594-3번지,37.3073479,126.9973661
씨유 신동 삼성점,영업,경기도 수원시 영통구 신원로 127-1 (신동),경기도 수원시 영통구 신동 396-20번지 ,37.2488507,127.0552816
씨유수원인계보첼리점,영업,"경기도 수원시 팔달구 인계로108번길 39-4, 1층 (인계동)",경기도 수원시 팔달구 인계동 1032번지 1층 ,37.2657898,127.0288678
GS25경기대점,영업,경기도 수원시 장안구 광교산로140번길 3 (연무동),경기도 수원시 장안구 연무동 6-4번지 LG25 ,37.2998753,127.0304698
미니스톱 광교파인렉스점,영업,"경기도 수원시 영통구 대학3로4번길 2, 1층 110,111호 (이의동)","경기도 수원시 영통구 이의동 1257-4번지 1층  110,111호 ",37.29951135,127.0430793
GS25 구운빌리지,영업,경기도 수원시 권선구 구운로45번길 81 (구운동),경기도 수원시 권선구 구운동 537-6번지 ,37.27597263,126.9704683
씨유수원뉴코아점,영업,"경기도 수원시 팔달구 인계로166번길 15-4, 1층 102호 (인계동)",경기도 수원시 팔달구 인계동 1115-11번지 1층 102호,37.26540083,127.0354515
세븐일레븐 광교두산위브점,영업,"경기도 수원시 영통구 광교중앙로 55, 광교두산위브 노인복지주택 상가동 지2층 105호 (원천동)","경기도 수원시 영통구 원천동 556번지 광교두산위브 노인복지주택, 지2층 105호",37.28076715,127.0508046
세븐일레븐 수원컨벤션센터점,영업,"경기도 수원시 영통구 광교중앙로 140, 수원컨벤션센터,광장내 근생시설동 1층 104호 (하동)",경기도 수원시 영통구 하동 855-2번지 수원컨벤션센터 광장내 근생시설 104호일부 ,37.2853493,127.0598626
지에스25장안영화점,영업,"경기도 수원시 장안구 정조로957번길 21, 대성빌딩 1층 (영화동)",경기도 수원시 장안구 영화동 347-2번지 대성빌딩 ,37.29201241,127.0102237
씨유 수원동신점,영업,"경기도 수원시 장안구 만석로159번길 48, 1층 (파장동)",경기도 수원시 장안구 파장동 495-30번지 ,37.30365372,126.9969265
씨유인계한양점,영업,"경기도 수원시 팔달구 중부대로 80, 인계한양수자인 상가3동 1층 43호 (인계동)",경기도 수원시 팔달구 인계동 1170번지 인계한양수자인 상가3동 1층 43호,37.27607132,127.0255339
CU 수원광교산점,영업,"경기도 수원시 장안구 창훈로60번길 53, 1층 (연무동)",경기도 수원시 장안구 연무동 9-14번지 ,37.29951518,127.0294997
CU매탄산남점,영업,"경기도 수원시 영통구 매봉로35번길 51, 1층 (매탄동)",경기도 수원시 영통구 매탄동 111-113번지 ,37.27173918,127.0499984
지에스(GS)25 광교중흥점,영업,"경기도 수원시 영통구 광교호수공원로 277, 판매시설동 지2층 B2-215호 (원천동, 중흥 S-클래스)","경기도 수원시 영통구 원천동 589번지 중흥 S-클래스, 지2층  B2-215호 판매시설동 ",37.28243119,127.0574135
CU수한대한대우점,영업,"경기도 수원시 팔달구 권선로 477, 상가2동 1층 101,102호 (매산로2가, 대한대우아파트)",경기도 수원시 팔달구 매산로2가 90번지 대한대우아파트 ,37.26563055,127.004449
세븐일레븐 수원 그린메디피아점,영업,경기도 수원시 권선구 매송고색로711번길 3-10 (고색동),경기도 수원시 권선구 고색동 890-18번지 ,37.25143738,126.9813646
세븐일레븐화서주공점,영업,"경기도 수원시 팔달구 덕영대로697번길 47, 1층 101호 (화서동, 화서3단지주공아파트)","경기도 수원시 팔달구 화서동 646번지 화서3단지주공아파트내상가, 1층 101호",37.28584914,126.9921466
GS25권선삼정,영업,"경기도 수원시 권선구 당수로 203, 가동 1층 (당수동)",경기도 수원시 권선구 당수동 216번지 ,37.28981759,126.9441725
이마트24 원앙부부율전점,영업,"경기도 수원시 장안구 율전로101번길 26, 103,104호 (율전동, 경진빌딩)",경기도 수원시 장안구 율전동 321-9번지 경진빌딩 ,37.2986209,126.9675913
세븐일레븐 천천원룸점,영업,"경기도 수원시 장안구 일월로76번길 19-5, 1층 (천천동)",경기도 수원시 장안구 천천동 385-37번지 ,37.29009975,126.9775306
이마트24 R수원한일타운점,영업,"경기도 수원시 장안구 경수대로994번길 31, 102호 (송죽동, 광교프라자)",경기도 수원시 장안구 송죽동 195번지 광교프라자 ,37.30681646,127.0037505
세븐일레븐 수원망포자이점,영업,"경기도 수원시 영통구 태장로82번길 32, 1층 103호 (망포동, 동수원자이1차)",경기도 수원시 영통구 망포동 686-103번지 동수원자이1차 ,37.23660651,127.0535602
씨유팔달점,영업,"경기도 수원시 팔달구 인계로124번길 41-3, 삼화빌딩 1층 (인계동)",경기도 수원시 팔달구 인계동 1040-10번지 삼화빌딩 ,37.26557327,127.0305588
GS25팔달유진점,영업,"경기도 수원시 팔달구 중부대로 119, 1층 (지동)",경기도 수원시 팔달구 지동 73-5번지 ,37.278323,127.0293344
씨유 수원두견마을점,영업,"경기도 수원시 장안구 수성로245번길 21, 상가동 110~111호 (정자동, 두견마을 영남,우방,한솔아파트)","경기도 수원시 장안구 정자동 887-1번지 두견마을 영남,우방,한솔아파트 ",37.2902375,126.9975027
세븐일레븐 호매실21단지점,영업,"경기도 수원시 권선구 호매실로 103, 101,102호 (호매실동, 능실마을21단지)",경기도 수원시 권선구 호매실동 1408번지 능실마을21단지 ,37.25404442,126.9596203
씨유삼성시티점,영업,"경기도 수원시 영통구 삼성로168번길 100, 1층 (매탄동)",경기도 수원시 영통구 매탄동 383-11번지 ,37.26129189,127.0599122
미니스톱수원무비점,영업,"경기도 수원시 팔달구 권광로187번길 10-3, 1층 (인계동)",경기도 수원시 팔달구 인계동 1038-18번지 ,37.2646808,127.0321142
씨유 매탄프라자점,영업,"경기도 수원시 영통구 효원로 383, 매탄프라자 1층 109호 (매탄동)","경기도 수원시 영통구 매탄동 1267-2번지 매탄프라자, 1층 109호",37.2591812,127.0435538
세븐일레븐 수원영통벽산점,영업,"경기도 수원시 영통구 영통로90번길 4-27, 주상가동 1층 101,102호 (망포동, 늘푸른 벽산아파트)","경기도 수원시 영통구 망포동 488번지 늘푸른 벽산아파트, 1층 101,102호 주상가동 ",37.2398559,127.0606961
미니스톱 광교대학로점,영업,"경기도 수원시 영통구 대학1로50번길 12, 1층 (이의동)",경기도 수원시 영통구 이의동 1260-4번지 1층 ,37.2993486,127.0445228
GS25 수원신곡점,영업,"경기도 수원시 권선구 세권로94번길 1, 1층 (세류동)",경기도 수원시 권선구 세류동 508-44번지 ,37.25781806,127.0145828
CU수원트윈파크점,영업,"경기도 수원시 팔달구 권선로 753, 트윈파크비동 1층 (인계동)",경기도 수원시 팔달구 인계동 1134-9번지 트윈파크비동 ,37.2576704,127.0337234
이마트24 광교법원점,영업,"경기도 수원시 영통구 광교중앙로248번길 7-2, 원희캐슬 광교 1층 C-109호 (하동)","경기도 수원시 영통구 하동 989번지 원희캐슬 광교, 1층 C-109호",37.29140091,127.0664194
지에스25 센트럴타운점,영업,"경기도 수원시 권선구 세류로 28, A동 101,102호 (세류동)",경기도 수원시 권선구 세류동 1277번지 ,37.26179212,127.0067599
미니스톱 서둔연화점,영업,"경기도 수원시 권선구 세화로141번길 33-4, 1층 (서둔동)",경기도 수원시 권선구 서둔동 33-10번지 ,37.2640713,126.992206
이마트24 영통점,영업,"경기도 수원시 영통구 봉영로 1623, 드림피아빌딩 113호 (영통동)",경기도 수원시 영통구 영통동 958-1번지 드림피아빌딩 ,37.2558506,127.0746408
CU 망포힐스점,영업,"경기도 수원시 영통구 영통로153번길 98, 국제프라자 105호 (망포동)",경기도 수원시 영통구 망포동 255-2번지 국제프라자 105호,37.2413294,127.0499231
지에스25 장안대평로점,영업,"경기도 수원시 장안구 대평로142번길 21, 1층 편의점내 (정자동)",경기도 수원시 장안구 정자동 327-13번지 1층 편의점 내 ,37.300788,126.9912534
GS25장안송죽,영업,경기도 수원시 장안구 경수대로927번길 12-26 (송죽동),경기도 수원시 장안구 송죽동 499-1번지 1층 ,37.30201393,127.007168
토니PC방,영업,"경기도 수원시 장안구 경수대로 940, 일호골든타워 5층 (조원동)",경기도 수원시 장안구 조원동 894번지 일호골든타워,37.303068,127.0080365
GS25 영통파크캐슬,영업,"경기도 수원시 영통구 덕영대로 1400, 상가에이동 1층 104,105호 (망포동, 아이파크 캐슬 2단지)","경기도 수원시 영통구 망포동 760번지 아이파크 캐슬 2단지 104,105 ",37.2436927,127.0429144
씨유 영통일등점,영업,"경기도 수원시 영통구 청명로43번길 15, 1층 (영통동)",경기도 수원시 영통구 영통동 1029-16번지 ,37.25107204,127.0796972
씨유수원인계성호점,영업,"경기도 수원시 팔달구 경수대로446번길 13, 1층 (인계동)",경기도 수원시 팔달구 인계동 1024-10번지 1층 ,37.2658803,127.0273346
씨유화서문점,영업,경기도 수원시 팔달구 화서문로17번길 4 (장안동),경기도 수원시 팔달구 장안동 322-17번지,37.2853448,127.0101666
GS25원천삼성,영업,"경기도 수원시 영통구 중부대로448번길 29, 1층 (원천동)",경기도 수원시 영통구 원천동 224-3번지 ,37.268012,127.0629161
CU 수원 망포빌리지점,영업,경기도 수원시 영통구 영통로130번길 42 (망포동),경기도 수원시 영통구 망포동 524-4번지 ,37.2395776,127.0585546
GS25권선미래점,영업,"경기도 수원시 권선구 효원로230번길 38, 1층 101호 (권선동, 대우미래사랑오피스텔)",경기도 수원시 권선구 권선동 1011-14번지 101호,37.261015,127.0258337
지에스25시탑동새롬점,영업,경기도 수원시 권선구 서둔로 253 (탑동),경기도 수원시 권선구 탑동 22-1번지,37.2740707,126.9785619
세븐일레븐 정자송정점,영업,경기도 수원시 장안구 송정로76번길 61 (정자동),경기도 수원시 장안구 정자동 67-13번지,37.293292,127.0072239
씨유망포태장점,영업,"경기도 수원시 영통구 영통로153번길 20, 해피프라자 1동 106호 (망포동)",경기도 수원시 영통구 망포동 295-2번지 해피프라자 1동 106호,37.2414087,127.0541381
세븐일레븐 수원세류희망점,영업,"경기도 수원시 권선구 세지로28번길 50, 1층 (세류동)",경기도 수원시 권선구 세류동 1104-3번지 1층 ,37.25360082,127.018223
CU광교중앙점,영업,"경기도 수원시 영통구 대학3로4번길 12, 이스턴타워 1층 106호 (이의동)",경기도 수원시 영통구 이의동 1257-3번지 이스턴타워 106호,37.2998446,127.0434178
GS25 원천베스트점,영업,"경기도 수원시 영통구 삼성로267번길 28, 1층 (원천동)",경기도 수원시 영통구 원천동 253-5번지 1층 ,37.2666788,127.0623626
씨즈더원GS25,영업,"경기도 수원시 권선구 효원로220번길 17, 104호 (권선동)",경기도 수원시 권선구 권선동 1011-9번지 104호,37.2621233,127.0257551
씨유 수원백설점,영업,"경기도 수원시 장안구 대평로89번길 10, 1층 101호 (정자동, 백설마을 주공아파트)",경기도 수원시 장안구 정자동 871-3번지 백설마을 주공아파트 상가동 101호,37.29613043,126.9916515
씨유수원타이점,영업,"경기도 수원시 권선구 금곡로 202, e-SPACE CITY-1 125호 (금곡동)",경기도 수원시 권선구 금곡동 1118번지 e-SPACE CITY-1 ,37.2734851,126.9526982
GS25 광교62단지점,영업,"경기도 수원시 영통구 센트럴파크로 34, 1층 103호 (하동, 광교센트럴타운62단지)",경기도 수원시 영통구 하동 1013번지 광교센트럴타운62단지 ,37.28917689,127.0635532
지에스25 권선고산로,영업,"경기도 수원시 권선구 고산로27번길 15, 1층 (고색동)",경기도 수원시 권선구 고색동 73-6번지 ,37.24862607,126.9808695
씨유 구운스타점,영업,"경기도 수원시 권선구 구운로85번길 12, 102, 103호 (구운동)",경기도 수원시 권선구 구운동 921-11번지 ,37.28148474,126.9724254
씨유 수원나누리점,영업,"경기도 수원시 영통구 동수원로537번길 16-6, 1층 (원천동)",경기도 수원시 영통구 원천동 78-55번지 ,37.27436651,127.048376
씨유수원구암점,영업,"경기도 수원시 팔달구 정조로742번길 17, A동 1층 (구천동)",경기도 수원시 팔달구 구천동 32-5번지 ,37.27420745,127.0175619
씨유 수원하늘채점,영업,"경기도 수원시 장안구 수성로258번길 21, 102,103호 (영화동)",경기도 수원시 장안구 영화동 400-5번지 ,37.28898519,127.0015625
미니스톱 호매실에비뉴점,영업,"경기도 수원시 권선구 금곡로197번길 18-24, 1층 101호 (금곡동)",경기도 수원시 권선구 금곡동 1113-3번지 ,37.27459428,126.9529563
이마트24수원지동점,영업,"경기도 수원시 팔달구 팔달문로75번길 76, 1층 (지동)",경기도 수원시 팔달구 지동 475번지 ,37.28273858,127.0272273
CU 수원고등점,영업,경기도 수원시 팔달구 고등로59번길 17 (고등동),경기도 수원시 팔달구 고등동 122-3번지 ,37.27401013,127.0034232
씨유수원SKV1점,영업,"경기도 수원시 권선구 평동로79번길 45, 130호 (평동)",경기도 수원시 권선구 평동 4-11번지 ,37.25926888,126.9929507
GS25권선브이원점,영업,"경기도 수원시 권선구 평동로79번길 45, 수원SK V1 motors 154호 (평동)",경기도 수원시 권선구 평동 179번지 ,37.25982635,126.9925722
세븐일레븐 수원수성로점,영업,"경기도 수원시 장안구 수성로290번길 3, 1층 101호 (영화동)",경기도 수원시 장안구 영화동 390-1번지 101호,37.29072195,127.0043688
GS25호매실파크점,영업,"경기도 수원시 권선구 금곡로 225, 1층 117호 (금곡동)",경기도 수원시 권선구 금곡동 1115-4번지 ,37.27507256,126.9547374
씨유 파장중앙점,영업,"경기도 수원시 장안구 이목로66번길 24, 1층 (파장동)",경기도 수원시 장안구 파장동 568-1번지 ,37.3099242,126.9892328
씨유수원천담점,영업,"경기도 수원시 팔달구 권광로196번길 43-20, 1층 101호 (인계동)",경기도 수원시 팔달구 인계동 1116-10번지 ,37.26510328,127.0361954
CU수원천천대월점,영업,"경기도 수원시 장안구 천천로74번길 35, 상가동 1층 101호 (정자동, 대월마을 주공아파트)",경기도 수원시 장안구 정자동 913번지 대월마을 주공아파트 상가동 101호,37.30029181,126.9857269
씨유 수원율전중앙점,영업,"경기도 수원시 장안구 덕영대로381번길 64, 1층 (율전동)",경기도 수원시 장안구 율전동 168-106번지 아트빌 ,37.30223381,126.9669467
지에스25 광교현대점,영업,"경기도 수원시 영통구 도청로18번길 26, 힐스테이트광교중앙역 주건축물제1동 1층 136호 (이의동)",경기도 수원시 영통구 이의동 1336번지 힐스테이트광교중앙역 ,37.28760377,127.0568031
지에스25 인계브라운도트점,영업,"경기도 수원시 팔달구 권광로196번길 21, 1층 (인계동)",경기도 수원시 팔달구 인계동 1115-19번지 ,37.26483926,127.0345382
씨유 영통래미안점,영업,"경기도 수원시 영통구 청명북로 33, 1층 107,108호 (영통동, 청명마을삼성아파트)",경기도 수원시 영통구 영통동 1046-1번지 청명마을삼성아파트 ,37.25493768,127.079363
이마트24 R수원율전중앙점,영업,"경기도 수원시 장안구 덕영대로407번길 34-9, 1층 (율전동)",경기도 수원시 장안구 율전동 163-11번지 ,37.30300912,126.9684013
씨유수원효원로점,영업,"경기도 수원시 팔달구 효원로308번길 16, 1층 105,106호 (인계동, 한화 꿈에그린 파크)",경기도 수원시 팔달구 인계동 1127-1번지 한화 꿈에그린 파크 ,37.26015711,127.0344459
이마트24 수원비발디점,영업,"경기도 수원시 권선구 효원로256번길 33, 한라비발디파크 1층 104호 (권선동)",경기도 수원시 권선구 권선동 1013-4번지 한라비발디파크 ,37.26032057,127.0292267
이마트24편의점(수원역점),영업,경기도 수원시 팔달구 향교로 1 (매산로1가),경기도 수원시 팔달구 매산로1가 16-7번지 ,37.26766042,127.0012831
씨유인계리치안점,영업,"경기도 수원시 팔달구 경수대로466번길 59, 1층 115호 (인계동)",경기도 수원시 팔달구 인계동 1035-7번지 ,37.2668527,127.0306945
세븐일레븐수원아너스빌,영업,"경기도 수원시 장안구 송원로 20, 상가동 101호 (송죽동, 수원 아너스빌 위즈)",경기도 수원시 장안구 송죽동 517번지 수원 아너스빌 위즈 ,37.29698623,127.0067504
세븐일레븐수원인계하이엘점,영업,"경기도 수원시 팔달구 경수대로 438, 현대하이엘 1층 102호 (인계동)","경기도 수원시 팔달구 인계동 1016-2번지 현대하이엘, 1층 102호",37.26512366,127.0263874
세븐일레븐 수원권선중앙점,영업,"경기도 수원시 권선구 세권로316번길 32, 1층 (권선동)",경기도 수원시 권선구 권선동 1291-5번지 ,37.25051531,127.037226
씨유 고등웰빙점,영업,"경기도 수원시 팔달구 고화로31번길 3, 1층 (고등동)",경기도 수원시 팔달구 고등동 71-1번지 1층 ,37.27204633,127.0068148
CU수원송죽타운점,영업,"경기도 수원시 장안구 정조로1051번길 29, 1층 (송죽동)",경기도 수원시 장안구 송죽동 386-1번지 ,37.29848198,127.0044722
천천해피니점(세븐일레븐),영업,"경기도 수원시 장안구 만석로19번길 29, 부강프라자 1층 102호 (천천동)",경기도 수원시 장안구 천천동 527-3번지 부강프라자 ,37.29654313,126.9830322
씨유호매실센터점,영업,"경기도 수원시 권선구 호매실로104번길 24-44, 센타프라자 101호 (호매실동)",경기도 수원시 권선구 호매실동 1402번지 센타프라자 ,37.25807322,126.963011
세븐일레븐 수원AK노보텔점,영업,"경기도 수원시 팔달구 덕영대로 924, AK플라자 2층 (매산로1가)",경기도 수원시 팔달구 매산로1가 18번지 AK플라자 ,37.26607203,126.9998381
씨유 수원권선현대점,영업,"경기도 수원시 권선구 매탄로 11, 상가동 110호 (권선동, 현대아파트)",경기도 수원시 권선구 권선동 1240번지 현대아파트 ,37.25304405,127.0355693
이마트24수원북중점,영업,경기도 수원시 장안구 광교산로 38 (영화동),경기도 수원시 장안구 영화동 31-1번지 ,37.29454294,127.0222237
세븐일레븐 인계세지로점,영업,"경기도 수원시 팔달구 세지로 172-1, 1층 (인계동)",경기도 수원시 팔달구 인계동 1003-1번지 ,37.26660215,127.0219234
세븐일레븐수원고등점,영업,"경기도 수원시 팔달구 갓매산로76번길 2, 1층 (고등동)",경기도 수원시 팔달구 고등동 300-10번지 ,37.26999154,127.0026678
씨유수원팔달로점,영업,"경기도 수원시 팔달구 팔달로153번길 2, 1층 (화서동)",경기도 수원시 팔달구 화서동 68-17번지 ,37.28203825,127.0055319
GS25인계센트럴점,영업,"경기도 수원시 팔달구 권광로180번길 24, 1층 (인계동)",경기도 수원시 팔달구 인계동 1123-24번지 ,37.26310364,127.0338384
씨유 청명주공점,영업,"경기도 수원시 영통구 청명북로 67, 청명마을주공아파트 상가 나동 101호 (영통동)",경기도 수원시 영통구 영통동 1048-6번지 청명마을주공아파트 ,37.25727113,127.0796922
CU수원만석점,영업,"경기도 수원시 장안구 정조로 1094-2, 1층 (송죽동)",경기도 수원시 장안구 송죽동 456-16번지 ,37.30259066,127.0025887
(주)비지에프휴먼넷 경기대학교점,영업,"경기도 수원시 영통구 광교산로 154-42, 경기대학교 강의연구B동 1층 (이의동)",경기도 수원시 영통구 이의동 산 94-6번지 경기대학교 ,37.2992625,127.0343036
씨유 우만 아주대점,영업,"경기도 수원시 팔달구 아주로 41, 1층 (우만동)",경기도 수원시 팔달구 우만동 573-9번지 1층 ,37.27850332,127.0435234
씨유 수원조원점,영업,"경기도 수원시 장안구 송정로187번길 86, 1층 (조원동)",경기도 수원시 장안구 조원동 746-5번지 ,37.30150897,127.0133602
씨유화서진흥점,영업,"경기도 수원시 팔달구 화산로 57, 상가동 1층 101호 (화서동, 꽃뫼버들마을 진흥아파트)",경기도 수원시 팔달구 화서동 706번지 꽃뫼버들마을 진흥아파트 ,37.28890257,126.9838349
씨유 광교원천점,영업,"경기도 수원시 영통구 월드컵로97번길 50, 1층 (원천동)",경기도 수원시 영통구 원천동 617-4번지 ,37.27444772,127.0507668
미니스톱수원테마거리점,영업,"경기도 수원시 팔달구 효원로292번길 33-22, 1층 (인계동)",경기도 수원시 팔달구 인계동 1126-7번지 ,37.25979693,127.0335552
세븐일레븐수원인계타운점,영업,"경기도 수원시 팔달구 인계로124번길 26, 금호빌딩 1층 (인계동)",경기도 수원시 팔달구 인계동 1034-7번지 금호빌딩 ,37.26621302,127.0304801
씨유수원화서영광점,영업,"경기도 수원시 팔달구 동말로25번길 71, 1층 (화서동)",경기도 수원시 팔달구 화서동 219-20번지 1층 ,37.28056936,126.9951693
세븐일레븐 수원파르마점,영업,경기도 수원시 팔달구 매산로 24 (매산로2가),경기도 수원시 팔달구 매산로2가 65-3번지 ,37.26743261,127.004201
CU 수원캐슬점,영업,경기도 수원시 팔달구 권광로340번길 23 (우만동),경기도 수원시 팔달구 우만동 144-21번지 ,37.27704098,127.0393578
GS25 광교센트럴점,영업,"경기도 수원시 영통구 도청로 10, 광교센트럴푸르지오시티 1층 (이의동)","경기도 수원시 영통구 이의동 1338번지 광교센트럴푸르지오시티, 1층 ",37.2861531,127.05586
지에스25우만센트럴점,영업,"경기도 수원시 팔달구 경수대로692번길 40, 1층 (우만동)",경기도 수원시 팔달구 우만동 485-3번지 1층 ,37.28779299,127.0288641
세븐일레븐 수원탑동본점,영업,"경기도 수원시 권선구 하탑로53번길 9, 1층 (탑동)",경기도 수원시 권선구 탑동 851-3번지 ,37.26970946,126.9773119
씨유 영통 보보스점,영업,"경기도 수원시 영통구 봉영로 1612, 1층 108호 (영통동)",경기도 수원시 영통구 영통동 996-4번지 1층 108호,37.2544088,127.0750001
씨유인계골드점,영업,"경기도 수원시 팔달구 장다리로314번길 2, 1층 (인계동)",경기도 수원시 팔달구 인계동 227-1번지 ,37.2758448,127.031363
GS25 광교아울렛,영업,"경기도 수원시 영통구 도청로 10, 광교센트럴푸르지오시티 (이의동)",경기도 수원시 영통구 이의동 1338번지 광교센트럴푸르지오시티 지하1층 ,37.2861531,127.05586
세븐일레븐수원로데오점,영업,"경기도 수원시 팔달구 갓매산로55번길 28, 1층 (매산로2가)",경기도 수원시 팔달구 매산로2가 28-9번지 1층 ,37.26843276,127.003254
지에스25 장안칸점,영업,"경기도 수원시 장안구 장안로 395, 1층 105호 (이목동, 수원 장안 STX KAN 1단지아파트)",경기도 수원시 장안구 이목동 918번지 수원 장안 STX KAN 1단지아파트 105호,37.31448245,126.9827568
GS 25 수원삼성점,영업,"경기도 수원시 영통구 효원로 397, 중앙프라자 1층 104호 (매탄동)",경기도 수원시 영통구 매탄동 1267-7번지 중앙프라자 ,37.2589644,127.0450868
미니스톱수원신동점,폐업,"경기도 수원시 영통구 신원로 124 (신동, 334-33, 1층일부)",경기도 수원시 영통구 신동 334-33번지 1층일부,37.2484634,127.0549995
세븐일레븐(수원세류점),폐업,경기도 수원시 권선구 세권로 138 (세류동),경기도 수원시 권선구 세류동 1076번지,37.2566011,127.0192831
GS25 탑동대능점,폐업,"경기도 수원시 권선구 하탑로 52, 104호 (탑동)",경기도 수원시 권선구 탑동 885-2번지 104호,37.2689886,126.9773459
씨유 디지털엠파이어1호점,폐업,"경기도 수원시 영통구 덕영대로1556번길 16, 226호 (영통동,디지털엠파이어)",경기도 수원시 영통구 영통동 980-3번지 디지털엠파이어 226호,37.2450463,127.0598886
미니스톱수원영통점,폐업,"경기도 수원시 영통구 봉영로 1617 150호 (영통동,훼미리타워)",경기도 수원시 영통구 영통동 958-2번지 훼미리타워 150,37.2554634,127.0742459
씨유 광교엘포트1호점,폐업,"경기도 수원시 영통구 광교중앙로 145, 광교엘포트아이파크 3,4호 (이의동)",경기도 수원시 영통구 이의동 1336-1번지 광교엘포트아이파크 3.4호,37.2869542,127.0576986
이마트24 수원영통점,폐업,"경기도 수원시 영통구 반달로35번길 30, 1층 120,131호 (영통동)","경기도 수원시 영통구 영통동 1012-1번지 영통역 아이파크 120,131호 ",37.2517672,127.0774097
씨유 수원매곡로점,폐업,"경기도 수원시 권선구 서수원로523번길 30-17, 1층 (금곡동)",경기도 수원시 권선구 금곡동 1135-5번지 1층,37.2711812,126.9575359
미니스톱수원인계점,폐업,경기도 수원시 팔달구 인계로124번길 34 (인계동),경기도 수원시 팔달구 인계동 1033-11번지,37.2659877,127.0303672
세븐일레븐(수원매탄3호),폐업,경기도 수원시 영통구 인계로292번길 42-17 (매탄동),경기도 수원시 영통구 매탄동 1257-1번지,37.2613242,127.0474442
씨유 광교중흥점,폐업,"경기도 수원시 영통구 광교호수공원로 277, B1층 72호 (원천동, 중흥 S-클래스)",경기도 수원시 영통구 원천동 589번지 중흥 S-클래스 ,37.28243119,127.0574135
세븐일레븐 수원행궁점,폐업,"경기도 수원시 팔달구 행궁로 65-1, 1층 (팔달로3가)",경기도 수원시 팔달구 팔달로3가 93-1번지 ,37.27664943,127.0158147
세븐일레븐 율전동문점,폐업,"경기도 수원시 장안구 화산로259번길 56, 1층 102호 (율전동)",경기도 수원시 장안구 율전동 395-9번지 ,37.2977648,126.9673097
미니스톱 수원북문점,폐업,경기도 수원시 장안구 정조로 957 (영화동),경기도 수원시 장안구 영화동 305-2번지,37.2924538,127.0110582
씨유,폐업,"경기도 수원시 영통구 덕영대로1499번길 75 (망포동, 9-2, 2층일부)",경기도 수원시 영통구 망포동 9-2번지 2층일부,37.247518,127.0534998
세븐일레븐(수원영통2호점),폐업,경기도 수원시 영통구 청명북로 8 (영통동),경기도 수원시 영통구 영통동 1033-8번지,37.2522165,127.0793602
세븐일레븐 권선대로점,폐업,"경기도 수원시 권선구 세지로 110, 1층 (권선동)",경기도 수원시 권선구 권선동 964-24번지 ,37.26137657,127.0192842
세븐일레븐 아주대병원점,폐업,"경기도 수원시 영통구 월드컵로 164, 지하1층 (원천동, 아주대학교병원 본관동)",경기도 수원시 영통구 원천동 산 26-6번지 아주대학교병원 본관 지하1층,37.2799842,127.0481994
씨유세류본점,폐업,"경기도 수원시 권선구 덕영대로1126번길 26-4 (세류동, 1층 편의점 내)",경기도 수원시 권선구 세류동 984-3번지 1층 편의점 내 ,37.2510153,127.013556
세븐일레븐(수원영통3호점),폐업,경기도 수원시 영통구 영일로21번길 4 (영통동),경기도 수원시 영통구 영통동 1005-12번지 ,37.2496595,127.0764158
미니스톱수원인계2점,폐업,경기도 수원시 팔달구 인계로124번길 19 (인계동),경기도 수원시 팔달구 인계동 1039번지 ,37.26642917,127.030886
아이비스PC,폐업,"경기도 수원시 장안구 만석로159번길 64, 아이비스PC 2층 (파장동)",경기도 수원시 장안구 파장동 495-24번지 2층 ,37.3042574,126.9967234
훼미리마트 수원샤르망,폐업,경기도 수원시 팔달구 인계로166번길 48-21 (인계동),경기도 수원시 팔달구 인계동 1119번지,37.2645183,127.0333655
편의24시,폐업,경기도 수원시 팔달구 인계로 72 (인계동),경기도 수원시 팔달구 인계동 976-1번지,37.2684846,127.0253399
훼미리마트우만원룸점,폐업,경기도 수원시 팔달구 아주로27번길 14 1층 (우만동),경기도 수원시 팔달구 우만동 73-1번지 1층,37.277292,127.0429998
씨유수원인계보첼리,폐업,"경기도 수원시 팔달구 인계로108번길 39-4, 1층 (인계동)",경기도 수원시 팔달구 인계동 1032번지,37.2657898,127.0288678
에이엠피엠제로25,폐업,"경기도 수원시 팔달구 월드컵로 319-1 1층 (우만동,유경프라자)",경기도 수원시 팔달구 우만동 518번지 유경빌딩 1층,37.2866205,127.0336112
세븐일레븐(수원인계6호점),폐업,경기도 수원시 팔달구 경수대로467번길 22 (인계동),경기도 수원시 팔달구 인계동 977-10번지,37.2682143,127.025554
훼미리마트 금호점,폐업,경기도 수원시 권선구 노림로 15 (호매실동),경기도 수원시 권선구 호매실동 404-1번지,37.2673234,126.9541786
미니스톱화서오거리점,폐업,경기도 수원시 팔달구 동말로 48 (화서동),경기도 수원시 팔달구 화서동 175-1번지,37.2785152,126.9992512
훼미리마트 세권점,폐업,"경기도 수원시 권선구 장다리로 50 내 (세류동,훼미리마트)",경기도 수원시 권선구 세류동 1098번지 훼미리마트내,37.2547089,127.0196096
미니스톱수원세류점,폐업,경기도 수원시 권선구 덕영대로1152번길 38 (세류동),경기도 수원시 권선구 세류동 1131-42번지,37.249132,127.015562
세븐일레븐(수원인계4호점),폐업,"경기도 수원시 팔달구 효원로 303 104호 (인계동,삼호파크타워아파트)",경기도 수원시 팔달구 인계동 1122-10번지 삼호파크타워 104호,37.2612381,127.0350889
세븐일레븐(수원망포2호점),폐업,경기도 수원시 영통구 영통로90번길 12 (망포동),경기도 수원시 영통구 망포동 485-16번지,37.2376308,127.0598041
훼미리마도월드점,폐업,경기도 수원시 팔달구 세지로189번길 62 (인계동),경기도 수원시 팔달구 인계동 559-24번지,37.2676026,127.0192855
훼미리마트동수원사거리점,폐업,"경기도 수원시 팔달구 경수대로 584, 101-2호 (인계동)",경기도 수원시 팔달구 인계동 939번지 신동아파스텔 101-2호,37.2776288,127.0313863
미니스톱수원벨로시티점,폐업,"경기도 수원시 팔달구 권선로 739 1층 (인계동,벨로시티)",경기도 수원시 팔달구 인계동 1135-1번지 벨로시티 1층,37.2580763,127.0320552
장동민옹PC,폐업,"경기도 수원시 권선구 삼천병마로1598번길 35, 2층 (오목천동)",경기도 수원시 권선구 오목천동 318-10번지 2층 ,37.2460451,126.9650911
GS25 장안풍림점,폐업,"경기도 수원시 장안구 정자천로189번길 47, 106호 (정자동, 연꽃마을풍림아파트 상가동)",경기도 수원시 장안구 정자동 872-1번지 연꽃마을풍림아파트 상가동 106호,37.298013,126.9934757
훼미리마트우만원룸점,폐업,경기도 수원시 팔달구 아주로27번길 14 (우만동),경기도 수원시 팔달구 우만동 73-1번지,37.277292,127.0429998
미니스톱 구운베스트점,폐업,"경기도 수원시 권선구 구운로63번길 34, 가동 101호 (구운동)",경기도 수원시 권선구 구운동 935-27번지 가동 101호,37.27948405,126.9708702
세븐일레븐(수원북문점),폐업,"경기도 수원시 장안구 팔달로 271 (영화동,외1필지)",경기도 수원시 장안구 영화동 282-2번지 외1필지,37.2894892,127.0143396
지에스25 광교자이,폐업,경기도 수원시 영통구 에듀타운로 35 (이의동),경기도 수원시 영통구 이의동 1367번지 자연앤자이 상가1동,37.2852994,127.0505368
세븐일레븐수원정자점,폐업,,"경기도 수원시 장안구 정자동 74-19번지 ,74-35",37.2900123,126.9991491
세븐일레븐(수원매탄2호점),폐업,경기도 수원시 영통구 인계로264번길 10 (매탄동),경기도 수원시 영통구 매탄동 1238-5번지,37.2633521,127.0458671
CGV수원8,폐업,,경기도 수원시 팔달구 매산로1가 18번지 번지 외1필지(지상6층),37.266072,126.999838
씨유 수원명당점,폐업,"경기도 수원시 권선구 세권로315번길 7, 1층 (권선동)",경기도 수원시 권선구 권선동 1285-5번지 1층 ,37.2520467,127.0384214
훼미리마트,폐업,경기도 수원시 영통구 인계로220번길 22 (매탄동),경기도 수원시 영통구 매탄동 923-33번지,37.2639845,127.040941
GS25시다모아점,폐업,경기도 수원시 팔달구 효원로219번길 36 (인계동),경기도 수원시 팔달구 인계동 1026-9번지,37.2648172,127.0266691
미니스톱(아주대점),폐업,"경기도 수원시 팔달구 아주로47번길 32 외1필지  101호 (우만동,플러스빌)",경기도 수원시 팔달구 우만동 45-1번지 외1필지 플러스빌오피스텔 101호,37.2792386,127.0418845
미니스톱경기대 기숙사점,폐업,"경기도 수원시 영통구 광교산로 154-42 (이의동, 산94-6외65필지 경기대학교기숙사1층일부)",경기도 수원시 영통구 이의동 산 94-6번지 경기대학교기숙사1층일부,37.3006759,127.0357824
씨유청명주공점,폐업,"경기도 수원시 영통구 청명북로 67, 나동 1층 101호 (영통동, 청명아파트상가)",경기도 수원시 영통구 영통동 1048-6번지 청명아파트상가 나동 101호,37.2572711,127.0796922
바이더웨이인계점,폐업,경기도 수원시 팔달구 권광로180번길 19 (인계동),경기도 수원시 팔달구 인계동 1120-9번지,37.263464,127.0338047
세븐일레븐(수원역2호),폐업,,경기도 수원시 팔달구 매산로1가 16-1번지,37.2678741,127.0009766
훼미리마트(아주대플러스점),폐업,경기도 수원시 팔달구 아주로47번길 15 1층 (우만동),"경기도 수원시 팔달구 우만동 58-18번지 ,1층",37.278932,127.0426398
세븐일레븐(수원 망포동),폐업,경기도 수원시 영통구 영통로 124 (망포동),경기도 수원시 영통구 망포동 542-11번지,37.2388217,127.0565594
세븐일레븐 수원 화서점,폐업,"경기도 수원시 팔달구 덕영대로697번길 21-7 1동 (화서동,정자프라자)",경기도 수원시 팔달구 화서동 644-4번지 정자프라자1동,37.2851281,126.9908949
(주)비지에프리테일수원탑동점,폐업,경기도 수원시 권선구 탑동로11번길 2 (탑동),경기도 수원시 권선구 탑동 840-7번지,37.2700422,126.9747525
씨유 망포원룸점,폐업,경기도 수원시 영통구 영통로174번길 85 (망포동),경기도 수원시 영통구 망포동 345-20번지,37.2438568,127.0600568
씨유 수원경서점,폐업,경기도 수원시 팔달구 중부대로106번길 34 (인계동),경기도 수원시 팔달구 인계동 218-6번지,37.2762958,127.029142
세븐일레븐,폐업,경기도 수원시 권선구 금호로 62 (호매실동),경기도 수원시 권선구 호매실동 81-1번지,37.2697398,126.9582358
엘지25시우만점,폐업,경기도 수원시 팔달구 팔달문로 161 (우만동),경기도 수원시 팔달구 우만동 530-24번지,37.2831785,127.0336436
씨유수원영통벽적골점,폐업,"경기도 수원시 영통구 영통로214번길 55 (영통동, 974-8, 1층일부)",경기도 수원시 영통구 영통동 974-8번지 1층일부,37.2466049,127.0602504
미니스톱아주대정문점,폐업,경기도 수원시 팔달구 아주로 43-1 (우만동),경기도 수원시 팔달구 우만동 573-6번지,37.2787606,127.0434403
미니스톱수원원천점,폐업,경기도 수원시 영통구 매영로 143 (원천동),경기도 수원시 영통구 원천동 550-2번지,37.2665726,127.0584392
미니스톱수원탑동점,폐업,,경기도 수원시 권선구 탑동 53블럭9롯트번지,37.270251,126.9824303
세븐일레븐(수원매탄4호점),폐업,경기도 수원시 영통구 매탄로79번길 6-2 (매탄동),경기도 수원시 영통구 매탄동 1270-5번지,37.2582086,127.0420315
세븐일레븐수원조원솔대점,폐업,경기도 수원시 장안구 수일로219번길 2 (조원동),경기도 수원시 장안구 조원동 53-2번지,37.3064284,127.0141165
세븐일레븐(수원권선5호점),폐업,경기도 수원시 권선구 효원로 188 (권선동),경기도 수원시 권선구 권선동 939-6번지,37.2637908,127.0223623
훼미리마트수원서문점,폐업,,"경기도 수원시 팔달구 화서동 20-7번지 ,11",37.2855432,127.0066709
세븐일레븐(수원인계7호점),폐업,경기도 수원시 팔달구 경수대로446번길 61 1층 (인계동),경기도 수원시 팔달구 인계동 1032-8번지 1층,37.2651859,127.0299724
미니스톱수원태장점,폐업,"경기도 수원시 영통구 영통로 136 (망포동, 386번지 센트럴타워 117호)",경기도 수원시 영통구 망포동 386번지 센트럴타워 117호,37.2395787,127.0563345
미니스톱수원예술점,폐업,"경기도 수원시 팔달구 효원로308번길 58-9, 104호 (인계동)",경기도 수원시 팔달구 인계동 1134-4번지 104호,37.25787768,127.0337799
위드미수원금당로,폐업,"경기도 수원시 장안구 금당로 46 (조원동, 신원빌딩101호)",경기도 수원시 장안구 조원동 731-6번지 신월빌딩 101호,37.30268,127.0158868
CU탑동삼성점,폐업,"경기도 수원시 권선구 탑동로 60, 편의점 내 1층 (탑동)",경기도 수원시 권선구 탑동 757-6번지 ,37.27412373,126.9739843
세븐일레븐(수원인계점),폐업,경기도 수원시 팔달구 효원로265번길 41 1층 (인계동),경기도 수원시 팔달구 인계동 1043-9번지 1층,37.2638791,127.0312233
세븐일레븐 광교밸리점,폐업,"경기도 수원시 영통구 센트럴타운로 114-6, 101호 (이의동)",경기도 수원시 영통구 이의동 1322-6번지 101호,37.2932917,127.0499216
세븐일레븐광교월드마크1호점,폐업,경기도 수원시 영통구 센트럴타운로 107 (이의동),경기도 수원시 영통구 이의동 1331번지,37.2918147,127.048308
GS25편의점(수원조원점),폐업,경기도 수원시 장안구 조원로111번길 47 (조원동),경기도 수원시 장안구 조원동 759-14번지,37.3003737,127.0125817
세븐일레븐수원인계점,폐업,경기도 수원시 팔달구 효원로265번길 41 (인계동),경기도 수원시 팔달구 인계동 1043-9번지,37.2638791,127.0312233
GS25팔달고등점,폐업,"경기도 수원시 팔달구 고등로59번길 48, 1층 (고등동)",경기도 수원시 팔달구 고등동 51-15번지 1층 ,37.27549382,127.0034986
진로베스토아,폐업,,"경기도 수원시 영통구 원천동 33번지 -7,8",37.2982033,127.0472967
미니스톱영통보보스점,폐업,"경기도 수원시 영통구 봉영로 1612 127호 (영통동,보보스프라자)",경기도 수원시 영통구 영통동 996-4번지 보보스프라자127호,37.2544088,127.0750001
세븐일레븐(수원아이메카점),폐업,"경기도 수원시 팔달구 덕영대로 905 106호 (매산로1가,아이메카빌딩)",경기도 수원시 팔달구 매산로1가 11-12번지 아이메카상가 106호,37.267793,127.0004806
세븐일레븐(수원 원천점),폐업,"경기도 수원시 영통구 중부대로 289, B동 (원천동)",경기도 수원시 영통구 원천동 78-3번지 B동,37.2739566,127.0476095
씨유수원호산빌리지점,폐업,"경기도 수원시 영통구 매영로247번길 15 (원천동, 원천동 419-14번지 1층일부)",경기도 수원시 영통구 원천동 419-14번지 1층일부,37.2594329,127.0654682
미니스톱,폐업,"경기도 수원시 팔달구 권광로 199, 103호 (인계동)",경기도 수원시 팔달구 인계동 1038-2번지 103호,37.2654645,127.032836
미니스톱에듀메디컬점,폐업,"경기도 수원시 영통구 도청로17번길 34 (이의동, 1341-1, 103호)",경기도 수원시 영통구 이의동 1341-1번지 103호,37.2852352,127.0531642
세븐일레븐(인계CGV점),폐업,경기도 수원시 팔달구 권광로 181 외 1필지  113호 (인계동),경기도 수원시 팔달구 인계동 1113-11번지 외 1필지 113호,37.2638789,127.0322266
미니스톱매탄이삭점,폐업,"경기도 수원시 영통구 매탄로 102 외1필지 이삭프라자 110,111 (매탄동)","경기도 수원시 영통구 매탄동 1261-2번지 외1필지 이삭프라자 110,111",37.2597939,127.0434414
세븐일레븐(수원지동점),폐업,경기도 수원시 팔달구 세지로 319 (지동),경기도 수원시 팔달구 지동 281-3번지,37.2794865,127.0236969
(주)보광훼미리마트,폐업,,경기도 수원시 팔달구 팔달로1가 6-9번지,37.2812085,127.0168641
세븐일레븐 오목중앙점,폐업,"경기도 수원시 권선구 삼천병마로1598번길 28-27, 101호 (오목천동)",경기도 수원시 권선구 오목천동 314-27번지 101호,37.2459643,126.9660379
GS25영통매봉점,폐업,경기도 수원시 영통구 매봉로 51 (매탄동),경기도 수원시 영통구 매탄동 1194-4번지,37.2724857,127.0530881
훼미리마트수원망포중앙점,폐업,경기도 수원시 영통구 덕영대로1499번길 75 1층 (망포동),경기도 수원시 영통구 망포동 9-2번지 (1층),37.247518,127.0534998
착한편의점,폐업,"경기도 수원시 팔달구 덕영대로735번길 18 (화서동, 한진현대아파트 상가동 104호 편의점내)",경기도 수원시 팔달구 화서동 656번지 한진현대아파트 상가동 104호 편의점내,37.2812359,126.9934777
미니스톱수원북문2점,폐업,경기도 수원시 장안구 정조로 931 (영화동),경기도 수원시 장안구 영화동 311-6번지,37.2904264,127.012479
CU디지털엠파이어1호점,폐업,"경기도 수원시 영통구 덕영대로1556번길 16, 디지털엠파이어빌딩 226호 (영통동)",경기도 수원시 영통구 영통동 980-3번지 디지털엠파이어빌딩 ,37.2450463,127.0598886
써클K 수원청송점,폐업,경기도 수원시 장안구 파장로 83 (정자동),경기도 수원시 장안구 정자동 535-12번지,37.3066176,126.9913991
세븐일레븐수원성대점,폐업,"경기도 수원시 장안구 서부로2126번길 9 101호 (율전동,성대프라자)",경기도 수원시 장안구 율전동 288-4번지 성대프라자 101호,37.2980905,126.9721142
세븐일레븐(수원권선6호점),폐업,경기도 수원시 권선구 세권로316번길 4 (권선동),경기도 수원시 권선구 권선동 1286-8번지,37.2515422,127.0379478
세븐일레븐(수원영통5호점),폐업,경기도 수원시 영통구 청명로 85 (영통동),경기도 수원시 영통구 영통동 1038-11번지,37.2541276,127.0778855
21세기편의점,폐업,경기도 수원시 팔달구 인계로108번길 4 (인계동),경기도 수원시 팔달구 인계동 1019-5번지,37.2675738,127.0291164
세븐일레븐(수원화서2호점),폐업,"경기도 수원시 팔달구 수성로157번길 27-4 1층 (화서동,우영프라자)",경기도 수원시 팔달구 화서동 678-2번지 우영프라자1층,37.2873715,126.989282
CU신동빌리지점,폐업,"경기도 수원시 영통구 권선로882번길 26-5, 1층 (신동)",경기도 수원시 영통구 신동 921-1번지,37.2491261,127.0423086
씨유 광교대학로점,폐업,"경기도 수원시 영통구 대학1로8번길 109, 1층 (이의동)",경기도 수원시 영통구 이의동 1244-3번지,37.2988432,127.0468347
미니스톱화서오거리점,폐업,경기도 수원시 팔달구 동말로 48 (화서동),경기도 수원시 팔달구 화서동 175-1번지,37.2785152,126.9992512
씨유 우만본점(CU),폐업,경기도 수원시 팔달구 월드컵로297번길 42 (우만동),경기도 수원시 팔달구 우만동 522-26번지,37.2840436,127.0333621
세븐일레븐 수원정자중앙,폐업,"경기도 수원시 장안구 수성로275번길 28, 1층 (정자동)",경기도 수원시 장안구 정자동 72-6번지,37.2916522,127.0016752
훼미리마트,폐업,"경기도 수원시 권선구 여기산로 19, 101호 (구운동,선경(아)상가)",경기도 수원시 권선구 구운동 466번지 선경(아)상가 101호,37.27912528,126.9776696
씨유매탄주공점,폐업,경기도 수원시 영통구 매여울로67번길 48 (매탄동),경기도 수원시 영통구 매탄동 153-36번지,37.27449,127.042615
씨유수원평동점,폐업,"경기도 수원시 권선구 평동로 72, 1층 (평동)",경기도 수원시 권선구 평동 37-37번지 1층,37.2575479,126.9930636
잇스토어리테일 세류점,폐업,"경기도 수원시 권선구 덕영대로1152번길 38, 1층 (세류동)",경기도 수원시 권선구 세류동 1131-42번지 1층,37.249132,127.015562
엘지25수원만호,폐업,경기도 수원시 팔달구 향교로 154 (중동),경기도 수원시 팔달구 중동 14번지,37.2738472,127.0157578
세븐일레븐(수원탑동점),폐업,,경기도 수원시 권선구 탑동 46-6번지,37.2727327,126.9622591
미니스톱인계아울렛점,폐업,경기도 수원시 팔달구 중부대로60번길 40 (인계동),경기도 수원시 팔달구 인계동 751-9번지,37.2745402,127.0217224
엘지25아주대점,폐업,경기도 수원시 영통구 아주로 46 (원천동),경기도 수원시 영통구 원천동 18-1번지,37.2787603,127.0441394
GS25수원천로,폐업,"경기도 수원시 권선구 수원천로 5, 1층 (세류동)",경기도 수원시 권선구 세류동 454-7번지,37.25571,127.0085293
세븐일레븐 광교롯데아울렛점,폐업,"경기도 수원시 영통구 도청로 10, 1층 (이의동)",경기도 수원시 영통구 이의동 1338번지,37.2861261,127.0558599
씨유탑동대로점,폐업,"경기도 수원시 권선구 금호로 200 (탑동, 1층)",경기도 수원시 권선구 탑동 747-5번지 1층 ,37.27448359,126.9718081
씨유아주대플러스점,폐업,"경기도 수원시 팔달구 아주로47번길 15, 1층 (우만동)",경기도 수원시 팔달구 우만동 58-18번지 1층,37.278932,127.0426398
GS25 수원신곡,폐업,"경기도 수원시 권선구 세권로94번길 1 (세류동, 편의점 내)",경기도 수원시 권선구 세류동 508-44번지 편의점 내 ,37.25781806,127.0145828
미니스톱수원역점,폐업,경기도 수원시 팔달구 덕영대로 925 (매산로1가),경기도 수원시 팔달구 매산로1가 57-69번지,37.2659639,127.0013712
미니스톱조원점,폐업,경기도 수원시 장안구 조원로 91 (조원동),경기도 수원시 장안구 조원동 743-5번지,37.300896,127.015503
GS25수원선일점,폐업,"경기도 수원시 권선구 효원로266번길 14, 101호 (권선동, 선일빌딩)",경기도 수원시 권선구 권선동 1013-21번지 선일빌딩 101호,37.26110425,127.0301964
KBS수원휴게실,폐업,경기도 수원시 팔달구 인계로 123 외70필지 (인계동),경기도 수원시 팔달구 인계동 468번지 외70필지,37.2692401,127.0320032
미니스톱수원수원매산점,폐업,경기도 수원시 팔달구 향교로 55-1 (매산로2가),경기도 수원시 팔달구 매산로2가 8-2번지,37.269658,127.0068617
맥스피드피시방,폐업,"경기도 수원시 장안구 화산로213번길 15, 2층 (율전동)",경기도 수원시 장안구 율전동 288-40번지 2층,37.2988205,126.9727004
세븐일레븐(수원역점),폐업,경기도 수원시 팔달구 향교로1번길 19 (매산로1가),경기도 수원시 팔달구 매산로1가 11-10번지,37.2682615,127.0003678
이마트,폐업,"경기도 수원시 팔달구 권선로 731 외 2필지  107호 (인계동,삼부르네상스)",경기도 수원시 팔달구 인계동 1135-8번지 외 2필지 삼부르네상스오피스텔 107호,37.2582387,127.0310633
지에스25(정자스카이점),폐업,경기도 수원시 장안구 장안로 92 (정자동),경기도 수원시 장안구 정자동 48-8번지 ,37.29234602,127.0021489
훼미리마트 율전상률점,폐업,경기도 수원시 장안구 서부로2181번길 55 (율전동),경기도 수원시 장안구 율전동 149-4번지,37.3031175,126.9695856
세븐일레븐(수원르네상스점),폐업,"경기도 수원시 팔달구 권선로 731 외 2필지  107호 (인계동,삼부르네상스)",경기도 수원시 팔달구 인계동 1135-8번지 외 2필지 삼부르네상스 107호,37.2582387,127.0310633
(주)피앤피모터스(Stage Ctr-No1),폐업,"경기도 수원시 권선구 경수대로 123, 2층 (권선동)",경기도 수원시 권선구 권선동 896번지 2층 ,37.2381571,127.0183325
세븐일레븐,폐업,"경기도 수원시 장안구 서부로2126번길 9 (율전동,성대프라자 101호)",경기도 수원시 장안구 율전동 288-4번지 성대프라자 101호,37.2980905,126.9721142
베스트올수원역점,폐업,경기도 수원시 팔달구 향교로 8 (매산로1가),경기도 수원시 팔달구 매산로1가 49-11번지,37.2675137,127.00198
GS25 수원신곡점,폐업,"경기도 수원시 권선구 세권로94번길 1, 1층 (세류동)",경기도 수원시 권선구 세류동 508-44번지 1층,37.257818,127.0145828
세븐일레븐 호매실원룸점,폐업,"경기도 수원시 권선구 금곡로102번길 45, 106호 (금곡동)",경기도 수원시 권선구 금곡동 1086-2번지 106호,37.2721563,126.9418749
미니스톱 팔달남문점,폐업,경기도 수원시 팔달구 행궁로 80 (팔달로3가),경기도 수원시 팔달구 팔달로3가 124-1번지,37.2755952,127.015341
훼미리마트,폐업,경기도 수원시 영통구 덕영대로 1689 (영통동),경기도 수원시 영통구 영통동 1024-1번지,37.2479117,127.0759745
씨유아주대프라자점,폐업,"경기도 수원시 영통구 월드컵로 199, 107호 (원천동)",경기도 수원시 영통구 원천동 13-4번지 캠퍼스프라자 107호,37.2791838,127.0440607
씨유광교에듀하임점,폐업,"경기도 수원시 영통구 에듀타운로 101, 103동 104호 105호 (이의동, 에듀하임1309오피스텔)",경기도 수원시 영통구 이의동 1352번지 에듀하임1309오피스텔 103동 104호105호 ,37.2893378,127.0456451
씨유 수원수정점,폐업,경기도 수원시 팔달구 고매로19번길 4 (고등동),경기도 수원시 팔달구 고등동 64-5번지,37.271352,127.0049452
미니스톱화서블루밍점,폐업,경기도 수원시 팔달구 팔달로153번길 65 (화서동),경기도 수원시 팔달구 화서동 81-48번지,37.2823986,127.0020362
써클케이수원화서점,폐업,경기도 수원시 팔달구 동말로 57 (화서동),경기도 수원시 팔달구 화서동 107-5번지,37.2788756,127.0005366
세븐일레븐(수원권선3호점),폐업,경기도 수원시 권선구 세권로165번길 30-25 (권선동),경기도 수원시 권선구 권선동 1054-7번지,37.2570417,127.0245587
엘지휴게음식점,폐업,"경기도 수원시 팔달구 팔달로 105 , 2, 6, 20, 26, 27 (화서동)","경기도 수원시 팔달구 화서동 93-1번지 , 2, 6, 20, 26, 27",37.2780737,127.002927
LG25 정자점,폐업,경기도 수원시 장안구 장안로 269 (정자동),경기도 수원시 장안구 정자동 528-6번지,37.3056535,126.9911737
씨유수원캐슬점,폐업,"경기도 수원시 팔달구 권광로340번길 23, 1층 (우만동)",경기도 수원시 팔달구 우만동 144-21번지 1층,37.2770409,127.0393577
미니스톱화서점,폐업,경기도 수원시 팔달구 팔달로119번길 16 (화서동),경기도 수원시 팔달구 화서동 71-93번지,37.2792901,127.0028143
